{"type":"FeatureCollection","features":[{"type":"Feature","geometry":{"coordinates":[[[[25.765165,45.134092],[25.765197,45.134166],[25.76512,45.134181],[25.765025,45.134287],[25.765007,45.134347],[25.765084,45.134716],[25.767995,45.139656],[25.767942,45.140032],[25.767942,45.140032],[25.767968,45.14014],[25.767938,45.140252],[25.768035,45.140287],[25.768061,45.140107],[25.768081,45.139963],[25.768125,45.139642],[25.765575,45.135315],[25.765261,45.133716],[25.765095,45.133835],[25.765076,45.133888],[25.765119,45.133986],[25.765165,45.134092]]]],"type":"MultiPolygon"},"properties":{"id":null,"_s":{"f":"#0000ff","fo":0.3,"s":"#0000ff","so":1.0,"w":1.89,"r":5.0}}},{"type":"Feature","geometry":{"coordinates":[[[[25.76498,45.133711],[25.764454,45.130974],[25.764241,45.129629],[25.76171,45.126843],[25.760369,45.125267],[25.758239,45.122727],[25.757892,45.122382],[25.757241,45.121542],[25.756871,45.121046],[25.756548,45.120283],[25.756398,45.118926],[25.756388,45.118924],[25.756257,45.1189],[25.755961,45.118844],[25.755942,45.119071],[25.756034,45.119356],[25.756163,45.119585],[25.756326,45.119848],[25.756367,45.120304],[25.756493,45.120462],[25.756549,45.120621],[25.756658,45.120948],[25.756808,45.12123],[25.757069,45.121566],[25.757443,45.122016],[25.757972,45.122651],[25.758385,45.123147],[25.758891,45.123755],[25.759252,45.124184],[25.759874,45.124928],[25.760165,45.125277],[25.760268,45.1254],[25.760941,45.126218],[25.761255,45.126646],[25.761674,45.12708],[25.762023,45.12739],[25.764027,45.129502],[25.764183,45.129917],[25.764349,45.130984],[25.764389,45.131177],[25.764396,45.131312],[25.764789,45.133346],[25.764922,45.133635],[25.76498,45.133711]]]],"type":"MultiPolygon"},"properties":{"id":null,"_s":{"f":"#0000ff","fo":0.3,"s":"#0000ff","so":1.0,"w":1.89,"r":5.0}}},{"type":"Feature","geometry":{"coordinates":[[[[25.756257,45.1189],[25.756388,45.118924],[25.75614,45.11686],[25.757024,45.114481],[25.757129,45.114337],[25.757157,45.114072],[25.756902,45.114458],[25.756012,45.116852],[25.756257,45.1189]]]],"type":"MultiPolygon"},"properties":{"id":null,"_s":{"f":"#0000ff","fo":0.3,"s":"#0000ff","so":1.0,"w":1.89,"r":5.0}}},{"type":"Feature","geometry":{"coordinates":[[[[25.767226,45.148135],[25.767035,45.147775],[25.766956,45.147859],[25.766721,45.147912],[25.766791,45.147614],[25.766892,45.14762],[25.767107,45.146394],[25.767208,45.145764],[25.767081,45.145753],[25.767048,45.14575],[25.767041,45.145791],[25.766962,45.146261],[25.766883,45.146729],[25.766789,45.147288],[25.766766,45.147628],[25.766764,45.147659],[25.766682,45.147656],[25.766551,45.148074],[25.766699,45.148086],[25.766917,45.148083],[25.767226,45.148135]]]],"type":"MultiPolygon"},"properties":{"id":null,"_s":{"f":"#0000ff","fo":0.3,"s":"#0000ff","so":1.0,"w":1.89,"r":5.0}}},{"type":"Feature","geometry":{"coordinates":[[[[25.767113,45.14142],[25.767036,45.141418],[25.767066,45.141763],[25.767097,45.142094],[25.767144,45.142632],[25.767171,45.142921],[25.767196,45.143202],[25.767259,45.143887],[25.767141,45.144739],[25.767052,45.145258],[25.766983,45.145648],[25.766975,45.145695],[25.766971,45.145722],[25.76696,45.145783],[25.766881,45.146254],[25.766802,45.146722],[25.766705,45.147292],[25.766684,45.14762],[25.766682,45.147656],[25.766764,45.147659],[25.766766,45.147628],[25.766789,45.147288],[25.766883,45.146729],[25.766962,45.146261],[25.767041,45.145791],[25.767048,45.14575],[25.767037,45.14575],[25.767055,45.145646],[25.767173,45.144953],[25.767217,45.144742],[25.767334,45.143885],[25.767288,45.143345],[25.767249,45.142924],[25.767226,45.142635],[25.76719,45.14225],[25.767175,45.142097],[25.767145,45.141767],[25.767113,45.14142]]]],"type":"MultiPolygon"},"properties":{"id":null,"_s":{"f":"#0000ff","fo":0.3,"s":"#0000ff","so":1.0,"w":1.89,"r":5.0}}},{"type":"Feature","geometry":{"coordinates":[[[[25.769261,45.145588],[25.767883,45.145565],[25.767829,45.145715],[25.767831,45.145735],[25.767833,45.145769],[25.767801,45.145794],[25.767208,45.145764],[25.767107,45.146394],[25.766892,45.14762],[25.766791,45.147614],[25.766721,45.147912],[25.766956,45.147859],[25.767035,45.147775],[25.76724,45.147555],[25.767631,45.147287],[25.767792,45.147095],[25.767918,45.146798],[25.768114,45.146681],[25.768483,45.146597],[25.768913,45.146363],[25.769288,45.146119],[25.769261,45.145588]]]],"type":"MultiPolygon"},"properties":{"id":null,"_s":{"f":"#0000ff","fo":0.3,"s":"#0000ff","so":1.0,"w":1.89,"r":5.0}}},{"type":"Feature","geometry":{"coordinates":[[[[25.769149,45.142862],[25.768811,45.142503],[25.768646,45.14223],[25.768448,45.142119],[25.768165,45.141907],[25.767993,45.141573],[25.767945,45.141463],[25.767916,45.14145],[25.76778,45.141389],[25.76787,45.141596],[25.768149,45.142131],[25.768067,45.142391],[25.768008,45.142653],[25.768081,45.142998],[25.768091,45.143055],[25.768116,45.143109],[25.768151,45.143237],[25.768162,45.143268],[25.768193,45.143354],[25.768221,45.143462],[25.768252,45.14359],[25.768273,45.143765],[25.768299,45.143869],[25.768297,45.144113],[25.768269,45.144354],[25.768206,45.144668],[25.768152,45.144817],[25.768145,45.144874],[25.768068,45.14505],[25.767883,45.145565],[25.769261,45.145588],[25.769397,45.145014],[25.76946,45.144605],[25.769717,45.144129],[25.769427,45.143272],[25.769149,45.142862]]]],"type":"MultiPolygon"},"properties":{"id":null,"_s":{"f":"#0000ff","fo":0.3,"s":"#0000ff","so":1.0,"w":1.89,"r":5.0}}},{"type":"Feature","geometry":{"coordinates":[[[[25.76786,45.140515],[25.767701,45.140692],[25.767561,45.140971],[25.767705,45.141283],[25.767768,45.141353],[25.76778,45.141389],[25.767916,45.14145],[25.767696,45.140972],[25.767914,45.140537],[25.767919,45.140528],[25.76786,45.140515]]]],"type":"MultiPolygon"},"properties":{"id":null,"_s":{"f":"#0000ff","fo":0.3,"s":"#0000ff","so":1.0,"w":1.89,"r":5.0}}},{"type":"Feature","geometry":{"coordinates":[[[[25.767141,45.141338],[25.767124,45.141163],[25.767124,45.14108],[25.767187,45.140955],[25.767423,45.140766],[25.767496,45.140705],[25.767559,45.140658],[25.767664,45.140568],[25.767746,45.140491],[25.767891,45.140273],[25.767827,45.140252],[25.767681,45.140474],[25.767612,45.140534],[25.767511,45.140621],[25.767448,45.140667],[25.76737,45.140732],[25.767124,45.140933],[25.767055,45.141068],[25.767056,45.141158],[25.767072,45.141341],[25.767141,45.141338]]]],"type":"MultiPolygon"},"properties":{"id":null,"_s":{"f":"#0000ff","fo":0.3,"s":"#0000ff","so":1.0,"w":1.89,"r":5.0}}},{"type":"Feature","geometry":{"coordinates":[[[[25.757129,45.114337],[25.75792,45.113096],[25.757946,45.111092],[25.757761,45.110847],[25.756413,45.109263],[25.756264,45.109327],[25.756621,45.109736],[25.75691,45.110071],[25.757089,45.110274],[25.757389,45.110618],[25.757705,45.110981],[25.757833,45.111127],[25.757793,45.113023],[25.757157,45.114072],[25.757129,45.114337]]]],"type":"MultiPolygon"},"properties":{"id":null,"_s":{"f":"#0000ff","fo":0.3,"s":"#0000ff","so":1.0,"w":1.89,"r":5.0}}},{"type":"Feature","geometry":{"coordinates":[[[[25.754358,45.107691],[25.752882,45.106087],[25.752448,45.105617],[25.752181,45.105086],[25.75219,45.104478],[25.752149,45.104403],[25.752068,45.104428],[25.75211,45.104498],[25.752109,45.10481],[25.752107,45.105096],[25.752194,45.105279],[25.75223,45.105355],[25.752368,45.105642],[25.754392,45.107908],[25.756065,45.10922],[25.756207,45.109153],[25.75504,45.108217],[25.754882,45.108156],[25.754731,45.108033],[25.754653,45.107983],[25.7545,45.107858],[25.754367,45.107716],[25.754358,45.107691]]]],"type":"MultiPolygon"},"properties":{"id":null,"_s":{"f":"#0000ff","fo":0.3,"s":"#0000ff","so":1.0,"w":1.89,"r":5.0}}},{"type":"Feature","geometry":{"coordinates":[[[[25.751873,45.104097],[25.751993,45.10406],[25.751914,45.103911],[25.751907,45.103899],[25.75168,45.103472],[25.750466,45.102582],[25.750448,45.102572],[25.750364,45.102618],[25.750342,45.10263],[25.750379,45.102651],[25.751569,45.103521],[25.751873,45.104097]]]],"type":"MultiPolygon"},"properties":{"id":null,"_s":{"f":"#0000ff","fo":0.3,"s":"#0000ff","so":1.0,"w":1.89,"r":5.0}}}]}