{"type":"FeatureCollection","features":[{"type":"Feature","geometry":{"coordinates":[[[25.996513,44.880816,0.0],[25.992576,44.883127,0.0],[25.990538,44.886055,0.0],[25.988489,44.888998,0.0],[25.986946,44.891216,0.0],[25.985214,44.893701,0.0],[25.981366,44.895054,0.0],[25.977529,44.896402,0.0],[25.974049,44.897021,0.0]]],"type":"MultiLineString"},"properties":{"Denumire":"LEA 220 kV BRAZI VEST - CET 3","Tip":"LEA","Observatii":null,"_s":{"f":"#db1e2a","fo":0.0,"s":"#db1e2a","so":1.0,"w":2.49,"r":5.0,"d":"2.5,7.6","cap":"round","join":"round"},"_l":"LEA 220 kV BRAZI VEST - CET 3","_a":38.8,"_p":[44.890661,25.987332]}},{"type":"Feature","geometry":{"coordinates":[[[25.970764,44.89613,0.0],[25.968154,44.894865,0.0],[25.96571,44.892649,0.0],[25.963234,44.890402,0.0],[25.960809,44.888203,0.0],[25.958389,44.886007,0.0],[25.955968,44.88381,0.0],[25.953628,44.881689,0.0],[25.95129,44.879571,0.0],[25.949744,44.87817,0.0],[25.947698,44.875882,0.0],[25.945617,44.873555,0.0],[25.943277,44.870948,0.0],[25.940792,44.868173,0.0],[25.938711,44.865833,0.0],[25.936664,44.863545,0.0],[25.934347,44.86095,0.0],[25.932055,44.858385,0.0],[25.927472,44.857888,0.0],[25.925927,44.858275,0.0],[25.924516,44.858629,0.0],[25.920699,44.859585,0.0],[25.916817,44.860557,0.0],[25.912935,44.861531,0.0],[25.909045,44.862504,0.0],[25.905571,44.863375,0.0],[25.901757,44.86433,0.0],[25.897953,44.865283,0.0],[25.894106,44.866247,0.0],[25.890247,44.867213,0.0],[25.887773,44.867833,0.0],[25.883419,44.868919,0.0],[25.879211,44.869966,0.0],[25.875367,44.870922,0.0],[25.871536,44.871875,0.0],[25.867681,44.872835,0.0],[25.863869,44.873782,0.0],[25.859785,44.874799,0.0],[25.855499,44.875866,0.0],[25.851338,44.876899,0.0],[25.84739,44.877883,0.0],[25.843339,44.878891,0.0],[25.839355,44.87835,0.0],[25.835082,44.877771,0.0],[25.83075,44.877182,0.0],[25.827518,44.876743,0.0],[25.823027,44.876132,0.0],[25.818825,44.875561,0.0],[25.81558,44.875117,0.0],[25.811655,44.874417,0.0],[25.807714,44.873714,0.0],[25.803768,44.873009,0.0],[25.799752,44.87229,0.0],[25.795897,44.871601,0.0],[25.791844,44.870878,0.0],[25.787571,44.870114,0.0],[25.785331,44.869714,0.0]]],"type":"MultiLineString"},"properties":{"Denumire":"LEA 220 kV BRAZI VEST - TARGOVISTE","Tip":"LEA","Observatii":null,"_s":{"f":"#db1e2a","fo":0.0,"s":"#db1e2a","so":1.0,"w":2.49,"r":5.0,"d":"2.5,7.6","cap":"round","join":"round"},"_l":"LEA 220 kV BRAZI VEST - TARGOVISTE","_a":-9.3,"_p":[44.867104,25.890683]}},{"type":"Feature","geometry":{"coordinates":[[[25.970981,44.895847,0.0],[25.968565,44.894522,0.0],[25.966203,44.892374,0.0],[25.963728,44.890124,0.0],[25.961303,44.88792,0.0],[25.958896,44.885731,0.0],[25.956479,44.883533,0.0],[25.954158,44.881422,0.0],[25.951828,44.879304,0.0],[25.950269,44.877901,0.0],[25.948253,44.875625,0.0],[25.946179,44.873299,0.0],[25.943844,44.870681,0.0],[25.941543,44.868103,0.0],[25.939879,44.866238,0.0],[25.941607,44.862586,0.0],[25.946219,44.860799,0.0],[25.948108,44.860067,0.0],[25.953121,44.858124,0.0],[25.957645,44.856371,0.0],[25.961639,44.854822,0.0],[25.96566,44.853262,0.0],[25.969304,44.851849,0.0],[25.974319,44.852266,0.0],[25.979457,44.852693,0.0],[25.984353,44.853099,0.0],[25.989042,44.853498,0.0],[25.993251,44.852599,0.0],[25.997169,44.851771,0.0],[26.000356,44.853208,0.0],[26.003839,44.854778,0.0],[26.007864,44.856593,0.0],[26.012695,44.856804,0.0],[26.018322,44.85705,0.0],[26.021961,44.857209,0.0],[26.02768,44.856991,0.0],[26.032144,44.857022,0.0],[26.037773,44.857157,0.0],[26.041217,44.857241,0.0],[26.045517,44.857345,0.0],[26.049929,44.857454,0.0],[26.053802,44.856148,0.0],[26.057419,44.854929,0.0],[26.061226,44.853647,0.0],[26.065071,44.852349,0.0],[26.068753,44.851107,0.0],[26.072639,44.849798,0.0],[26.076179,44.848603,0.0],[26.078035,44.847927,0.0],[26.079485,44.848052,0.0],[26.082846,44.847024,0.0],[26.08737,44.84562,0.0],[26.091635,44.845169,0.0],[26.094753,44.844826,0.0],[26.099049,44.844355,0.0],[26.100963,44.845655,0.0],[26.104697,44.84819,0.0],[26.108619,44.850854,0.0],[26.112542,44.853516,0.0],[26.116081,44.855913,0.0],[26.118134,44.858997,0.0],[26.119482,44.861014,0.0],[26.121495,44.864026,0.0],[26.123495,44.867021,0.0],[26.125495,44.869989,0.0],[26.127084,44.872332,0.0],[26.128324,44.874144,0.0],[26.129935,44.876502,0.0],[26.132518,44.877654,0.0],[26.135252,44.878874,0.0],[26.137986,44.880093,0.0],[26.140669,44.881292,0.0],[26.143344,44.882484,0.0],[26.147035,44.88413,0.0],[26.149575,44.886683,0.0],[26.1548,44.888062,0.0],[26.158793,44.889116,0.0],[26.164049,44.890506,0.0],[26.168554,44.891689,0.0],[26.169903,44.895065,0.0],[26.171115,44.898099,0.0],[26.172339,44.901164,0.0],[26.176099,44.902445,0.0],[26.180211,44.903844,0.0],[26.184613,44.905343,0.0],[26.186187,44.905882,0.0],[26.186789,44.906584,0.0],[26.185454,44.909377,0.0],[26.182432,44.911116,0.0],[26.179477,44.912807,0.0],[26.176516,44.914498,0.0],[26.173302,44.916686,0.0],[26.170198,44.918797,0.0],[26.166981,44.920979,0.0],[26.165062,44.922285,0.0],[26.161548,44.924655,0.0],[26.157043,44.925493,0.0],[26.15339,44.926161,0.0],[26.150347,44.927811,0.0],[26.147307,44.929456,0.0],[26.146868,44.932876,0.0],[26.146398,44.93645,0.0],[26.143775,44.939209,0.0],[26.141189,44.941901,0.0],[26.138166,44.942154,0.0],[26.133589,44.942535,0.0],[26.129055,44.942902,0.0],[26.125061,44.941454,0.0]]],"type":"MultiLineString"},"properties":{"Denumire":"LEA 400 kV BRAZI VEST - TELEAJEN","Tip":"LEA","Observatii":null,"_s":{"f":"#db1e2a","fo":0.0,"s":"#db1e2a","so":1.0,"w":2.49,"r":5.0,"d":"2.5,7.6","cap":"round","join":"round"},"_l":"LEA 400 kV BRAZI VEST - TELEAJEN","_a":2.3,"_p":[44.844696,26.095946]}},{"type":"Feature","geometry":{"coordinates":[[[25.967898,44.716291,0.0],[25.967894,44.718787,0.0],[25.967893,44.721268,0.0],[25.967891,44.723795,0.0],[25.967391,44.726333,0.0],[25.96689,44.728887,0.0],[25.966383,44.73146,0.0],[25.96594,44.733717,0.0],[25.965551,44.735692,0.0],[25.966346,44.739219,0.0],[25.967038,44.742302,0.0],[25.965516,44.745165,0.0],[25.967098,44.747828,0.0],[25.968484,44.750155,0.0],[25.969574,44.751984,0.0],[25.969558,44.754409,0.0],[25.967428,44.75642,0.0],[25.965294,44.758431,0.0],[25.963105,44.760496,0.0],[25.960909,44.762565,0.0],[25.958678,44.764665,0.0],[25.956457,44.766758,0.0],[25.954217,44.768868,0.0],[25.95199,44.770965,0.0],[25.949769,44.773058,0.0],[25.947554,44.775141,0.0],[25.945336,44.777232,0.0],[25.9431,44.779337,0.0],[25.941053,44.781264,0.0],[25.93879,44.783398,0.0],[25.936528,44.78553,0.0],[25.934268,44.78766,0.0],[25.932013,44.789785,0.0],[25.929731,44.791935,0.0],[25.928031,44.793537,0.0],[25.92577,44.795666,0.0],[25.923633,44.797682,0.0],[25.921673,44.799526,0.0],[25.919737,44.80135,0.0],[25.917782,44.803192,0.0],[25.91584,44.80502,0.0],[25.913704,44.80703,0.0],[25.911568,44.809041,0.0],[25.909673,44.810824,0.0],[25.907389,44.812827,0.0],[25.905089,44.814846,0.0],[25.902781,44.816872,0.0],[25.900497,44.818877,0.0],[25.898219,44.820876,0.0],[25.895982,44.822838,0.0],[25.895635,44.823989,0.0],[25.896819,44.824931,0.0],[25.899009,44.826673,0.0],[25.901236,44.82844,0.0],[25.90284,44.829715,0.0],[25.905563,44.831601,0.0],[25.908297,44.833497,0.0],[25.911032,44.83539,0.0],[25.913763,44.837281,0.0],[25.916213,44.838978,0.0],[25.918673,44.840681,0.0],[25.921127,44.84238,0.0],[25.923607,44.844095,0.0],[25.926006,44.845784,0.0],[25.928438,44.847501,0.0],[25.931389,44.849578,0.0],[25.933811,44.851282,0.0],[25.936737,44.853345,0.0],[25.93853,44.854607,0.0],[25.94075,44.85617,0.0],[25.943029,44.857777,0.0],[25.945259,44.859348,0.0],[25.946387,44.860521,0.0],[25.947251,44.86142,0.0],[25.949208,44.863455,0.0],[25.951169,44.865495,0.0],[25.953127,44.867532,0.0],[25.955094,44.869577,0.0],[25.957075,44.871635,0.0],[25.959102,44.87374,0.0],[25.95793,44.876195,0.0],[25.956707,44.878755,0.0],[25.957945,44.880542,0.0],[25.959203,44.88236,0.0],[25.960466,44.884183,0.0],[25.961584,44.885797,0.0],[25.963174,44.888091,0.0],[25.964391,44.889849,0.0],[25.966748,44.892071,0.0],[25.968982,44.894177,0.0],[25.971339,44.895391,0.0]]],"type":"MultiLineString"},"properties":{"Denumire":"LEA 220 kV FUNDENI - BRAZI VEST","Tip":"LEA","Observatii":null,"_s":{"f":"#db1e2a","fo":0.0,"s":"#db1e2a","so":1.0,"w":2.49,"r":5.0,"d":"2.5,7.6","cap":"round","join":"round"},"_l":"LEA 220 kV FUNDENI - BRAZI VEST","_a":-81.6,"_p":[44.81058,25.909932]}},{"type":"Feature","geometry":{"coordinates":[[[25.92754,44.858763,0.0],[25.92696,44.85975,0.0],[25.924033,44.86198,0.0],[25.920991,44.864296,0.0],[25.917829,44.866705,0.0],[25.915285,44.868641,0.0],[25.912248,44.870955,0.0],[25.909213,44.873267,0.0],[25.906177,44.87558,0.0],[25.902962,44.878028,0.0],[25.900112,44.8802,0.0],[25.897102,44.882492,0.0],[25.894096,44.884781,0.0],[25.891192,44.886993,0.0],[25.888173,44.889291,0.0],[25.885231,44.891528,0.0],[25.882173,44.893855,0.0],[25.879174,44.896138,0.0],[25.876127,44.898457,0.0],[25.873107,44.900755,0.0],[25.870072,44.903065,0.0],[25.867026,44.905383,0.0],[25.863988,44.907697,0.0],[25.860946,44.910013,0.0],[25.858696,44.911726,0.0],[25.855566,44.91411,0.0],[25.852525,44.916425,0.0],[25.849886,44.918435,0.0],[25.85053,44.921794,0.0],[25.85118,44.925183,0.0],[25.851566,44.927193,0.0],[25.852158,44.930274,0.0],[25.852759,44.933411,0.0],[25.85336,44.93654,0.0],[25.853962,44.93968,0.0],[25.85454,44.942702,0.0],[25.855144,44.945852,0.0],[25.85575,44.949005,0.0],[25.856338,44.952075,0.0],[25.856935,44.955184,0.0],[25.855482,44.958188,0.0],[25.854026,44.961201,0.0],[25.852559,44.964237,0.0],[25.851107,44.967242,0.0],[25.849632,44.970295,0.0],[25.848044,44.973582,0.0],[25.846599,44.976561,0.0],[25.845153,44.979549,0.0],[25.84377,44.982411,0.0],[25.842323,44.985405,0.0],[25.84088,44.988389,0.0],[25.839435,44.991375,0.0],[25.83799,44.99436,0.0],[25.836546,44.997344,0.0],[25.835087,45.000355,0.0],[25.833641,45.003342,0.0],[25.832185,45.006344,0.0],[25.83067,45.00947,0.0],[25.829272,45.012352,0.0],[25.827946,45.015089,0.0],[25.826468,45.01814,0.0],[25.825417,45.020301,0.0],[25.825768,45.02307,0.0],[25.826203,45.0265,0.0],[25.826487,45.02875,0.0],[25.826898,45.031988,0.0],[25.824361,45.034905,0.0],[25.822194,45.037396,0.0],[25.819932,45.039997,0.0],[25.817731,45.042525,0.0],[25.815528,45.045058,0.0],[25.813089,45.04786,0.0],[25.810845,45.050438,0.0],[25.808575,45.053046,0.0],[25.806236,45.05573,0.0],[25.803897,45.058416,0.0],[25.801879,45.060732,0.0],[25.799975,45.062917,0.0],[25.797812,45.065394,0.0],[25.795499,45.068046,0.0],[25.793201,45.070684,0.0],[25.790804,45.073435,0.0],[25.788768,45.075769,0.0],[25.78722,45.077545,0.0],[25.784986,45.080109,0.0],[25.782751,45.082674,0.0],[25.780873,45.084827,0.0],[25.778999,45.086976,0.0],[25.777093,45.089162,0.0],[25.777551,45.092367,0.0],[25.778052,45.095827,0.0],[25.778427,45.098435,0.0],[25.778805,45.101094,0.0],[25.777057,45.103611,0.0],[25.774982,45.106607,0.0],[25.773073,45.10936,0.0],[25.771618,45.111463,0.0],[25.770057,45.113711,0.0],[25.768082,45.116557,0.0],[25.766291,45.119135,0.0],[25.764534,45.121663,0.0],[25.763264,45.123334,0.0],[25.762048,45.12673,0.0],[25.760565,45.130338,0.0],[25.760847,45.133054,0.0],[25.761054,45.135852,0.0],[25.761253,45.138524,0.0],[25.762919,45.139659,0.0],[25.763188,45.141571,0.0],[25.764001,45.142742,0.0],[25.766065,45.146144,0.0],[25.769872,45.147867,0.0],[25.77273,45.149159,0.0],[25.773961,45.149715,0.0],[25.778259,45.151661,0.0],[25.777819,45.155546,0.0],[25.777592,45.157585,0.0],[25.778943,45.162073,0.0],[25.779614,45.164853,0.0],[25.780258,45.167506,0.0],[25.780588,45.168882,0.0],[25.781265,45.171681,0.0],[25.779957,45.174389,0.0],[25.780387,45.177129,0.0],[25.780435,45.17975,0.0],[25.777783,45.18239,0.0],[25.776907,45.183783,0.0],[25.775762,45.185611,0.0],[25.774278,45.188616,0.0],[25.773902,45.191913,0.0],[25.772492,45.19343,0.0],[25.770492,45.195332,0.0],[25.768844,45.196898,0.0],[25.766526,45.199096,0.0],[25.76463,45.200897,0.0],[25.762346,45.203066,0.0],[25.760092,45.205205,0.0],[25.757929,45.207261,0.0],[25.754904,45.210137,0.0],[25.753954,45.21104,0.0],[25.751541,45.213225,0.0],[25.750711,45.216491,0.0],[25.750274,45.218416,0.0],[25.748,45.221631,0.0],[25.746638,45.223661,0.0],[25.745195,45.225809,0.0],[25.742662,45.229583,0.0],[25.743047,45.231103,0.0],[25.743879,45.234046,0.0],[25.743799,45.235238,0.0],[25.743843,45.239154,0.0],[25.743889,45.244101,0.0],[25.743911,45.246178,0.0],[25.743947,45.249136,0.0],[25.743992,45.253187,0.0],[25.741934,45.257599,0.0],[25.741275,45.259534,0.0],[25.74001,45.262605,0.0],[25.738609,45.266044,0.0],[25.737834,45.267945,0.0],[25.736771,45.270534,0.0],[25.736036,45.272107,0.0],[25.736223,45.27438,0.0],[25.736444,45.280251,0.0],[25.736501,45.281967,0.0],[25.736602,45.28484,0.0],[25.736717,45.287854,0.0],[25.736906,45.293053,0.0],[25.736962,45.294562,0.0],[25.737086,45.297941,0.0],[25.737152,45.299691,0.0],[25.737262,45.302524,0.0],[25.737392,45.3062,0.0],[25.737462,45.308092,0.0],[25.73758,45.311883,0.0],[25.737639,45.313566,0.0],[25.737453,45.315393,0.0],[25.737162,45.31787,0.0],[25.736885,45.320359,0.0],[25.736526,45.32355,0.0],[25.736287,45.325748,0.0],[25.736035,45.328097,0.0],[25.735609,45.331027,0.0],[25.736034,45.334728,0.0],[25.736184,45.336392,0.0],[25.736345,45.33822,0.0],[25.739264,45.340329,0.0],[25.740837,45.343854,0.0],[25.740596,45.34605,0.0],[25.739477,45.347303,0.0],[25.737843,45.349134,0.0],[25.738371,45.351791,0.0],[25.738766,45.354234,0.0],[25.739871,45.357239,0.0],[25.740529,45.35936,0.0],[25.740938,45.362147,0.0],[25.741319,45.363611,0.0],[25.742123,45.36664,0.0],[25.742837,45.369367,0.0],[25.74339,45.371438,0.0],[25.744138,45.374279,0.0],[25.744868,45.377042,0.0],[25.745457,45.379299,0.0],[25.746,45.381182,0.0],[25.746922,45.384637,0.0],[25.747475,45.386741,0.0],[25.750288,45.389046,0.0],[25.753055,45.391315,0.0],[25.755643,45.393427,0.0],[25.758014,45.395383,0.0],[25.760132,45.397115,0.0],[25.762126,45.398747,0.0],[25.764145,45.400409,0.0],[25.76451,45.402917,0.0],[25.764861,45.405321,0.0],[25.765202,45.407656,0.0],[25.76542,45.409147,0.0],[25.763809,45.411706,0.0],[25.762202,45.414271,0.0],[25.760622,45.41679,0.0],[25.76232,45.419358,0.0],[25.76412,45.422087,0.0],[25.765472,45.424137,0.0],[25.767334,45.426962,0.0],[25.768677,45.429003,0.0],[25.770276,45.431435,0.0],[25.771289,45.432985,0.0],[25.773702,45.435862,0.0],[25.775607,45.438134,0.0],[25.775078,45.440286,0.0],[25.774719,45.441694,0.0],[25.774426,45.442853,0.0],[25.772244,45.443829,0.0],[25.768872,45.445334,0.0],[25.764821,45.445076,0.0],[25.762713,45.446309,0.0],[25.760463,45.447653,0.0],[25.759253,45.449451,0.0],[25.757948,45.451383,0.0],[25.756909,45.452931,0.0],[25.756348,45.455009,0.0],[25.755726,45.457286,0.0],[25.755177,45.459313,0.0],[25.754639,45.461312,0.0],[25.754117,45.463257,0.0],[25.753444,45.465747,0.0],[25.752956,45.467551,0.0]]],"type":"MultiLineString"},"properties":{"Denumire":"LEA 400 kV BRAZI VEST - DARSTE","Tip":"LEA","Observatii":null,"_s":{"f":"#db1e2a","fo":0.0,"s":"#db1e2a","so":1.0,"w":2.49,"r":5.0,"d":"2.5,7.6","cap":"round","join":"round"},"_l":"LEA 400 kV BRAZI VEST - DARSTE","_a":-89.0,"_p":[45.154181,25.777974]}},{"type":"Feature","geometry":{"coordinates":[[[25.996985,44.88105,0.0],[25.993462,44.883458,0.0],[25.991426,44.886377,0.0],[25.989279,44.889457,0.0],[25.987909,44.891421,0.0],[25.985647,44.894665,0.0],[25.981498,44.895895,0.0],[25.97846,44.896795,0.0],[25.974542,44.897956,0.0],[25.97205,44.897853,0.0]]],"type":"MultiLineString"},"properties":{"Denumire":"LEA 400 kV BRAZI VEST - CET 1 + 2","Tip":"LEA","Observatii":null,"_s":{"f":"#db1e2a","fo":0.0,"s":"#db1e2a","so":1.0,"w":2.49,"r":5.0,"d":"2.5,7.6","cap":"round","join":"round"},"_l":"LEA 400 kV BRAZI VEST - CET 1 + 2","_a":62.9,"_p":[44.892131,25.987414]}},{"type":"Feature","geometry":{"coordinates":[[[26.125061,44.941454,0.0],[26.129055,44.942902,0.0],[26.133589,44.942535,0.0],[26.138166,44.942154,0.0],[26.141189,44.941901,0.0],[26.143775,44.939209,0.0],[26.146398,44.93645,0.0],[26.146868,44.932876,0.0],[26.147307,44.929456,0.0],[26.150347,44.927811,0.0],[26.15339,44.926161,0.0],[26.157043,44.925493,0.0],[26.161548,44.924655,0.0],[26.165062,44.922285,0.0],[26.166981,44.920979,0.0],[26.170198,44.918797,0.0],[26.173302,44.916686,0.0],[26.176516,44.914498,0.0],[26.179477,44.912807,0.0],[26.182432,44.911116,0.0],[26.185454,44.909377,0.0],[26.186789,44.906584,0.0],[26.187797,44.906429,0.0],[26.189481,44.907001,0.0],[26.194054,44.908556,0.0],[26.198417,44.91004,0.0],[26.202805,44.911531,0.0],[26.207106,44.912983,0.0],[26.209517,44.914724,0.0],[26.213078,44.917279,0.0],[26.216554,44.919771,0.0],[26.219891,44.922163,0.0],[26.223317,44.924619,0.0],[26.22689,44.927177,0.0],[26.230539,44.929782,0.0],[26.234879,44.932893,0.0],[26.238087,44.935187,0.0],[26.241209,44.93742,0.0],[26.243254,44.938884,0.0],[26.247131,44.938772,0.0],[26.25145,44.938646,0.0],[26.255477,44.938526,0.0],[26.260194,44.938388,0.0],[26.264909,44.93825,0.0],[26.269807,44.938106,0.0],[26.274722,44.937961,0.0],[26.279437,44.937808,0.0],[26.284189,44.938474,0.0],[26.288849,44.939129,0.0],[26.292978,44.939029,0.0],[26.295,44.939761,0.0],[26.299584,44.940584,0.0],[26.304097,44.941931,0.0],[26.308861,44.943338,0.0],[26.313092,44.944586,0.0],[26.317218,44.945804,0.0],[26.321622,44.947104,0.0],[26.325854,44.948349,0.0],[26.330072,44.949593,0.0],[26.334272,44.950831,0.0],[26.33845,44.952062,0.0],[26.34283,44.953353,0.0],[26.346526,44.954459,0.0],[26.35027,44.955074,0.0],[26.354554,44.95636,0.0],[26.358888,44.957645,0.0],[26.363179,44.958916,0.0],[26.367584,44.960211,0.0],[26.371465,44.961853,0.0],[26.375801,44.963131,0.0],[26.380729,44.964587,0.0],[26.385866,44.966105,0.0],[26.390594,44.967502,0.0],[26.394985,44.968798,0.0],[26.399245,44.970055,0.0],[26.403712,44.971375,0.0],[26.408157,44.972686,0.0],[26.412619,44.974003,0.0],[26.41702,44.975302,0.0],[26.42138,44.976588,0.0],[26.425297,44.977744,0.0],[26.429978,44.979124,0.0],[26.432916,44.97999,0.0],[26.437923,44.981467,0.0],[26.441544,44.982536,0.0],[26.446591,44.984023,0.0],[26.451285,44.985407,0.0],[26.455753,44.986722,0.0],[26.459967,44.987972,0.0],[26.464283,44.988748,0.0],[26.46872,44.989554,0.0],[26.473072,44.990343,0.0],[26.477622,44.991168,0.0],[26.482026,44.991962,0.0],[26.485896,44.993986,0.0],[26.48969,44.995965,0.0],[26.49355,44.997977,0.0],[26.497505,45.000038,0.0],[26.50135,45.002044,0.0],[26.505251,45.004077,0.0],[26.509071,45.006068,0.0],[26.513046,45.008141,0.0],[26.516918,45.010158,0.0],[26.520542,45.012055,0.0],[26.524521,45.013618,0.0],[26.528569,45.015212,0.0],[26.532715,45.016847,0.0],[26.536952,45.018516,0.0]]],"type":"MultiLineString"},"properties":{"Denumire":"LEA 400 kV TELEAJEN - STALPU","Tip":"LEA","Observatii":null,"_s":{"f":"#db1e2a","fo":0.0,"s":"#db1e2a","so":1.0,"w":2.49,"r":5.0,"d":"2.5,7.6","cap":"round","join":"round"},"_l":"LEA 400 kV TELEAJEN - STALPU","_a":-46.1,"_p":[44.946589,26.319878]}},{"type":"Feature","geometry":{"coordinates":[[[25.970448,44.897225,0.0],[25.966902,44.895174,0.0],[25.963883,44.892514,0.0],[25.96087,44.889858,0.0],[25.957726,44.887083,0.0],[25.954842,44.884539,0.0],[25.951912,44.881954,0.0],[25.948957,44.879346,0.0],[25.946424,44.876481,0.0],[25.943951,44.873682,0.0],[25.941352,44.87075,0.0],[25.938892,44.867971,0.0],[25.93624,44.864976,0.0],[25.933698,44.862104,0.0],[25.931306,44.859408,0.0],[25.92754,44.858763,0.0],[25.925732,44.858001,0.0],[25.921578,44.85829,0.0],[25.918111,44.858901,0.0],[25.914674,44.859505,0.0],[25.911234,44.86011,0.0],[25.907608,44.85931,0.0],[25.904564,44.85864,0.0],[25.901049,44.857866,0.0],[25.897552,44.857095,0.0],[25.893673,44.856241,0.0],[25.888233,44.855041,0.0],[25.883714,44.854045,0.0],[25.879114,44.853031,0.0],[25.874782,44.852076,0.0],[25.870628,44.85116,0.0],[25.868885,44.848278,0.0],[25.867569,44.846093,0.0],[25.865972,44.843448,0.0],[25.863925,44.840058,0.0],[25.862293,44.837355,0.0],[25.862602,44.83427,0.0],[25.862984,44.830418,0.0],[25.863313,44.827116,0.0],[25.863598,44.824244,0.0],[25.863884,44.821373,0.0],[25.864208,44.818092,0.0],[25.86455,44.81466,0.0]]],"type":"MultiLineString"},"properties":{"Denumire":"LEA 400 kV BRAZI VEST - DOMNESTI","Tip":"LEA","Observatii":null,"_s":{"f":"#db1e2a","fo":0.0,"s":"#db1e2a","so":1.0,"w":2.49,"r":5.0,"d":"2.5,7.6","cap":"round","join":"round"},"_l":"LEA 400 kV BRAZI VEST - DOMNESTI","_a":-17.9,"_p":[44.85921,25.907153]}}]}