{"type":"FeatureCollection","features":[{"type":"Feature","geometry":{"coordinates":[25.752033,45.104244],"type":"Point"},"properties":{"text":"Pod DN1 (km 89+200) peste Râul Doftana\n","_s":{"f":"#db1e2a","fo":1.0,"s":"#801119","so":1.0,"w":1.51,"r":2.0},"_l":"Pod DN1 (km 89+200) peste Râul Doftana"}},{"type":"Feature","geometry":{"coordinates":[25.760081,45.125227],"type":"Point"},"properties":{"text":"Intersecție De","_s":{"f":"#db1e2a","fo":1.0,"s":"#801119","so":1.0,"w":1.51,"r":2.0},"_l":"Intersecție De"}},{"type":"Feature","geometry":{"coordinates":[25.767102,45.140471],"type":"Point"},"properties":{"text":"Intersecție DJ 102E","_s":{"f":"#db1e2a","fo":1.0,"s":"#801119","so":1.0,"w":1.51,"r":2.0},"_l":"Intersecție DJ 102E"}},{"type":"Feature","geometry":{"coordinates":[25.764583,45.163635],"type":"Point"},"properties":{"text":"Intersecție DJ 102I","_s":{"f":"#db1e2a","fo":1.0,"s":"#801119","so":1.0,"w":1.51,"r":2.0},"_l":"Intersecție DJ 102I"}}]}