{"type":"FeatureCollection","features":[{"type":"Feature","geometry":{"coordinates":[[[[25.972218,44.898232,0.0],[25.972345,44.89805,0.0],[25.972571,44.897731,0.0],[25.972824,44.897822,0.0],[25.97325,44.897274,0.0],[25.973269,44.897249,0.0],[25.973863,44.896493,0.0],[25.973774,44.896463,0.0],[25.973979,44.896199,0.0],[25.97417,44.895954,0.0],[25.974342,44.895733,0.0],[25.974374,44.895692,0.0],[25.97432,44.895671,0.0],[25.97328,44.89526,0.0],[25.973767,44.894653,0.0],[25.973396,44.894505,0.0],[25.972922,44.894321,0.0],[25.972904,44.894314,0.0],[25.972693,44.894228,0.0],[25.972079,44.895015,0.0],[25.972057,44.895045,0.0],[25.972043,44.895064,0.0],[25.971998,44.89512,0.0],[25.97198,44.895144,0.0],[25.971684,44.89553,0.0],[25.971653,44.895567,0.0],[25.971388,44.895899,0.0],[25.971322,44.895987,0.0],[25.970889,44.896565,0.0],[25.970691,44.896794,0.0],[25.970677,44.896815,0.0],[25.970606,44.896902,0.0],[25.970559,44.896961,0.0],[25.970863,44.897078,0.0],[25.970925,44.897102,0.0],[25.97058,44.897588,0.0],[25.971982,44.89814,0.0],[25.972218,44.898232,0.0]]]],"type":"MultiPolygon"},"properties":{"Denumire":"Statia Brazi Vest 400/220/110kV","Observatii":null,"_s":{"f":"#b5b4b4","fo":0.5,"s":"#232323","so":1.0,"w":0.98,"r":5.0},"_l":"Statia Brazi Vest 400/220/110kV","_p":[44.896341,25.972427]}},{"type":"Feature","geometry":{"coordinates":[[[[26.124512,44.941508,0.0],[26.124521,44.941498,0.0],[26.124844,44.941134,0.0],[26.124863,44.941114,0.0],[26.124853,44.941109,0.0],[26.124633,44.940998,0.0],[26.124907,44.940699,0.0],[26.12394,44.940245,0.0],[26.123599,44.940085,0.0],[26.123668,44.94001,0.0],[26.123675,44.940002,0.0],[26.123647,44.93999,0.0],[26.12357,44.939955,0.0],[26.123485,44.939913,0.0],[26.123322,44.939837,0.0],[26.122463,44.939433,0.0],[26.121929,44.940007,0.0],[26.121908,44.940029,0.0],[26.121855,44.940005,0.0],[26.121701,44.940173,0.0],[26.122742,44.940671,0.0],[26.124512,44.941508,0.0]]]],"type":"MultiPolygon"},"properties":{"Denumire":"Statia Teleajen 220/110kV","Observatii":null,"_s":{"f":"#b5b4b4","fo":0.5,"s":"#232323","so":1.0,"w":0.98,"r":5.0},"_l":"Statia Teleajen 220/110kV","_p":[44.940455,26.123369]}}]}