{"type":"FeatureCollection","features":[{"type":"Feature","geometry":{"coordinates":[[[25.752033,45.104244,0.0],[25.752629,45.105748,0.0],[25.753701,45.106842,0.0],[25.755586,45.108582,0.0],[25.756682,45.109369,0.0],[25.757979,45.110996,0.0],[25.758076,45.111181,0.0],[25.758029,45.112301,0.0],[25.757987,45.113274,0.0],[25.757772,45.113907,0.0],[25.756943,45.115197,0.0],[25.756377,45.116521,0.0],[25.756274,45.117153,0.0],[25.756479,45.118381,0.0],[25.756659,45.120205,0.0],[25.757007,45.121005,0.0],[25.757313,45.121936,0.0],[25.758267,45.123091,0.0],[25.759166,45.124143,0.0],[25.760215,45.125386,0.0],[25.76062,45.125899,0.0],[25.761218,45.126682,0.0],[25.762757,45.128282,0.0],[25.763735,45.12932,0.0],[25.763961,45.12958,0.0],[25.764031,45.129863,0.0],[25.764301,45.131101,0.0],[25.764576,45.132485,0.0],[25.764735,45.133341,0.0],[25.765058,45.13395,0.0],[25.765436,45.134937,0.0],[25.766135,45.135786,0.0],[25.76634,45.13605,0.0],[25.766511,45.136183,0.0],[25.766883,45.136309,0.0],[25.767265,45.136564,0.0],[25.767578,45.136832,0.0],[25.767994,45.137301,0.0],[25.76827,45.137992,0.0],[25.768413,45.138435,0.0],[25.768392,45.138561,0.0],[25.768099,45.13933,0.0],[25.767889,45.139651,0.0],[25.767102,45.140471,0.0],[25.766695,45.141324,0.0],[25.766528,45.141952,0.0],[25.766863,45.143069,0.0],[25.766966,45.143467,0.0],[25.767068,45.144201,0.0],[25.767097,45.1445,0.0],[25.76686,45.145746,0.0],[25.76673,45.146797,0.0],[25.76664,45.147594,0.0],[25.766609,45.147742,0.0],[25.766457,45.148246,0.0],[25.766341,45.149159,0.0],[25.766257,45.149743,0.0],[25.766225,45.150281,0.0],[25.766237,45.150571,0.0],[25.766251,45.151148,0.0],[25.766223,45.15157,0.0],[25.766359,45.152945,0.0],[25.766459,45.153352,0.0],[25.766581,45.153518,0.0],[25.766654,45.153667,0.0],[25.766752,45.154025,0.0],[25.766974,45.155063,0.0],[25.767142,45.155748,0.0],[25.767223,45.155968,0.0],[25.767345,45.156131,0.0],[25.767714,45.156661,0.0],[25.767923,45.156906,0.0],[25.768065,45.157051,0.0],[25.768329,45.157214,0.0],[25.768732,45.157405,0.0],[25.768845,45.157522,0.0],[25.768919,45.157646,0.0],[25.769098,45.157897,0.0],[25.769261,45.158152,0.0],[25.769413,45.15848,0.0],[25.769635,45.159048,0.0],[25.769554,45.159486,0.0],[25.76922,45.160269,0.0],[25.768934,45.160981,0.0],[25.768798,45.161227,0.0],[25.768617,45.161424,0.0],[25.768012,45.161818,0.0],[25.766926,45.162459,0.0],[25.765612,45.163245,0.0],[25.765339,45.163397,0.0],[25.764819,45.163568,0.0],[25.764583,45.163635,0.0]]],"type":"MultiLineString"},"properties":{"id":null,"_s":{"f":"#ff6011","fo":0.0,"s":"#000000","so":1.0,"w":5.67,"r":5.0,"st":[{"s":"#000000","so":1.0,"w":5.67,"cap":"round","join":"round"},{"s":"#ff6011","so":1.0,"w":4.02,"cap":"round","join":"round"}],"cap":"round","join":"round","ml":true}}},{"type":"Feature","geometry":{"coordinates":[[[25.767098,45.140711,0.0],[25.767104,45.140711,0.0],[25.76711,45.14071,0.0],[25.767115,45.14071,0.0],[25.767121,45.14071,0.0],[25.767126,45.14071,0.0],[25.767132,45.140709,0.0],[25.767137,45.140709,0.0],[25.767143,45.140708,0.0],[25.767148,45.140708,0.0],[25.767154,45.140707,0.0],[25.767159,45.140706,0.0],[25.767165,45.140705,0.0],[25.76717,45.140704,0.0],[25.767176,45.140703,0.0],[25.767181,45.140702,0.0],[25.767186,45.140701,0.0],[25.767192,45.1407,0.0],[25.767197,45.140699,0.0],[25.767202,45.140698,0.0],[25.767207,45.140696,0.0],[25.767213,45.140695,0.0],[25.767218,45.140693,0.0],[25.767223,45.140692,0.0],[25.767228,45.14069,0.0],[25.767233,45.140689,0.0],[25.767238,45.140687,0.0],[25.767243,45.140685,0.0],[25.767248,45.140683,0.0],[25.767253,45.140681,0.0],[25.767258,45.140679,0.0],[25.767262,45.140677,0.0],[25.767267,45.140675,0.0],[25.767272,45.140673,0.0],[25.767276,45.140671,0.0],[25.767281,45.140669,0.0],[25.767285,45.140666,0.0],[25.76729,45.140664,0.0],[25.767294,45.140661,0.0],[25.767299,45.140659,0.0],[25.767303,45.140656,0.0],[25.767307,45.140654,0.0],[25.767311,45.140651,0.0],[25.767315,45.140648,0.0],[25.767319,45.140646,0.0],[25.767323,45.140643,0.0],[25.767327,45.14064,0.0],[25.767331,45.140637,0.0],[25.767335,45.140634,0.0],[25.767338,45.140631,0.0],[25.767342,45.140628,0.0],[25.767345,45.140625,0.0],[25.767349,45.140622,0.0],[25.767352,45.140619,0.0],[25.767355,45.140616,0.0],[25.767359,45.140613,0.0],[25.767362,45.140609,0.0],[25.767365,45.140606,0.0],[25.767368,45.140603,0.0],[25.767371,45.140599,0.0],[25.767373,45.140596,0.0],[25.767376,45.140592,0.0],[25.767379,45.140589,0.0],[25.767381,45.140585,0.0],[25.767384,45.140582,0.0],[25.767386,45.140578,0.0],[25.767388,45.140575,0.0],[25.76739,45.140571,0.0],[25.767392,45.140567,0.0],[25.767394,45.140564,0.0],[25.767396,45.14056,0.0],[25.767398,45.140556,0.0],[25.7674,45.140552,0.0],[25.767402,45.140549,0.0],[25.767403,45.140545,0.0],[25.767404,45.140541,0.0],[25.767406,45.140537,0.0],[25.767407,45.140533,0.0],[25.767408,45.14053,0.0],[25.767409,45.140526,0.0],[25.76741,45.140522,0.0],[25.767411,45.140518,0.0],[25.767412,45.140514,0.0],[25.767413,45.14051,0.0],[25.767413,45.140506,0.0],[25.767414,45.140502,0.0],[25.767414,45.140498,0.0],[25.767414,45.140494,0.0],[25.767414,45.14049,0.0],[25.767415,45.140486,0.0],[25.767415,45.140483,0.0],[25.767414,45.140479,0.0],[25.767414,45.140475,0.0],[25.767414,45.140471,0.0],[25.767414,45.140467,0.0],[25.767413,45.140463,0.0],[25.767413,45.140459,0.0],[25.767412,45.140455,0.0],[25.767411,45.140451,0.0],[25.76741,45.140447,0.0],[25.767409,45.140443,0.0],[25.767408,45.140439,0.0],[25.767407,45.140436,0.0],[25.767406,45.140432,0.0],[25.767404,45.140428,0.0],[25.767403,45.140424,0.0],[25.767401,45.14042,0.0],[25.7674,45.140417,0.0],[25.767398,45.140413,0.0],[25.767396,45.140409,0.0],[25.767394,45.140405,0.0],[25.767392,45.140402,0.0],[25.76739,45.140398,0.0],[25.767388,45.140394,0.0],[25.767386,45.140391,0.0],[25.767383,45.140387,0.0],[25.767381,45.140384,0.0],[25.767378,45.14038,0.0],[25.767376,45.140377,0.0],[25.767373,45.140373,0.0],[25.76737,45.14037,0.0],[25.767367,45.140366,0.0],[25.767364,45.140363,0.0],[25.767361,45.14036,0.0],[25.767358,45.140357,0.0],[25.767355,45.140353,0.0],[25.767352,45.14035,0.0],[25.767348,45.140347,0.0],[25.767345,45.140344,0.0],[25.767342,45.140341,0.0],[25.767338,45.140338,0.0],[25.767334,45.140335,0.0],[25.767331,45.140332,0.0],[25.767327,45.140329,0.0],[25.767323,45.140326,0.0],[25.767319,45.140323,0.0],[25.767315,45.140321,0.0],[25.767311,45.140318,0.0],[25.767307,45.140315,0.0],[25.767302,45.140313,0.0],[25.767298,45.14031,0.0],[25.767294,45.140308,0.0],[25.767289,45.140305,0.0],[25.767285,45.140303,0.0],[25.767281,45.140301,0.0],[25.767276,45.140298,0.0],[25.767271,45.140296,0.0],[25.767267,45.140294,0.0],[25.767262,45.140292,0.0],[25.767257,45.14029,0.0],[25.767252,45.140288,0.0],[25.767247,45.140286,0.0],[25.767243,45.140284,0.0],[25.767238,45.140282,0.0],[25.767233,45.140281,0.0],[25.767227,45.140279,0.0],[25.767222,45.140277,0.0],[25.767217,45.140276,0.0],[25.767212,45.140274,0.0],[25.767207,45.140273,0.0],[25.767202,45.140272,0.0],[25.767196,45.14027,0.0],[25.767191,45.140269,0.0],[25.767186,45.140268,0.0],[25.76718,45.140267,0.0],[25.767175,45.140266,0.0],[25.76717,45.140265,0.0],[25.767164,45.140264,0.0],[25.767159,45.140263,0.0],[25.767153,45.140262,0.0],[25.767148,45.140262,0.0],[25.767142,45.140261,0.0],[25.767137,45.140261,0.0],[25.767131,45.14026,0.0],[25.767126,45.14026,0.0],[25.76712,45.140259,0.0],[25.767115,45.140259,0.0],[25.767109,45.140259,0.0],[25.767103,45.140259,0.0],[25.767098,45.140259,0.0],[25.767092,45.140259,0.0],[25.767087,45.140259,0.0],[25.767081,45.140259,0.0],[25.767076,45.140259,0.0],[25.76707,45.140259,0.0],[25.767064,45.14026,0.0],[25.767059,45.14026,0.0],[25.767053,45.140261,0.0],[25.767048,45.140261,0.0],[25.767042,45.140262,0.0],[25.767037,45.140263,0.0],[25.767031,45.140263,0.0],[25.767026,45.140264,0.0],[25.767021,45.140265,0.0],[25.767015,45.140266,0.0],[25.76701,45.140267,0.0],[25.767004,45.140268,0.0],[25.766999,45.140269,0.0],[25.766994,45.14027,0.0],[25.766988,45.140272,0.0],[25.766983,45.140273,0.0],[25.766978,45.140275,0.0],[25.766973,45.140276,0.0],[25.766968,45.140278,0.0],[25.766963,45.140279,0.0],[25.766958,45.140281,0.0],[25.766953,45.140283,0.0],[25.766948,45.140284,0.0],[25.766943,45.140286,0.0],[25.766938,45.140288,0.0],[25.766933,45.14029,0.0],[25.766928,45.140292,0.0],[25.766924,45.140294,0.0],[25.766919,45.140296,0.0],[25.766914,45.140299,0.0],[25.76691,45.140301,0.0],[25.766905,45.140303,0.0],[25.766901,45.140306,0.0],[25.766896,45.140308,0.0],[25.766892,45.14031,0.0],[25.766888,45.140313,0.0],[25.766884,45.140316,0.0],[25.766879,45.140318,0.0],[25.766875,45.140321,0.0],[25.766871,45.140324,0.0],[25.766867,45.140326,0.0],[25.766864,45.140329,0.0],[25.76686,45.140332,0.0],[25.766856,45.140335,0.0],[25.766852,45.140338,0.0],[25.766849,45.140341,0.0],[25.766845,45.140344,0.0],[25.766842,45.140347,0.0],[25.766839,45.14035,0.0],[25.766835,45.140354,0.0],[25.766832,45.140357,0.0],[25.766829,45.14036,0.0],[25.766826,45.140363,0.0],[25.766823,45.140367,0.0],[25.76682,45.14037,0.0],[25.766817,45.140374,0.0],[25.766815,45.140377,0.0],[25.766812,45.140381,0.0],[25.766809,45.140384,0.0],[25.766807,45.140388,0.0],[25.766805,45.140391,0.0],[25.766802,45.140395,0.0],[25.7668,45.140398,0.0],[25.766798,45.140402,0.0],[25.766796,45.140406,0.0],[25.766794,45.140409,0.0],[25.766792,45.140413,0.0],[25.766791,45.140417,0.0],[25.766789,45.140421,0.0],[25.766788,45.140425,0.0],[25.766786,45.140428,0.0],[25.766785,45.140432,0.0],[25.766784,45.140436,0.0],[25.766782,45.14044,0.0],[25.766781,45.140444,0.0],[25.76678,45.140448,0.0],[25.76678,45.140451,0.0],[25.766779,45.140455,0.0],[25.766778,45.140459,0.0],[25.766777,45.140463,0.0],[25.766777,45.140467,0.0],[25.766777,45.140471,0.0],[25.766776,45.140475,0.0],[25.766776,45.140479,0.0],[25.766776,45.140483,0.0],[25.766776,45.140487,0.0],[25.766776,45.140491,0.0],[25.766776,45.140495,0.0],[25.766777,45.140499,0.0],[25.766777,45.140503,0.0],[25.766778,45.140507,0.0],[25.766778,45.14051,0.0],[25.766779,45.140514,0.0],[25.76678,45.140518,0.0],[25.76678,45.140522,0.0],[25.766781,45.140526,0.0],[25.766782,45.14053,0.0],[25.766784,45.140534,0.0],[25.766785,45.140538,0.0],[25.766786,45.140541,0.0],[25.766788,45.140545,0.0],[25.766789,45.140549,0.0],[25.766791,45.140553,0.0],[25.766793,45.140557,0.0],[25.766794,45.14056,0.0],[25.766796,45.140564,0.0],[25.766798,45.140568,0.0],[25.7668,45.140571,0.0],[25.766803,45.140575,0.0],[25.766805,45.140579,0.0],[25.766807,45.140582,0.0],[25.76681,45.140586,0.0],[25.766812,45.140589,0.0],[25.766815,45.140593,0.0],[25.766818,45.140596,0.0],[25.76682,45.1406,0.0],[25.766823,45.140603,0.0],[25.766826,45.140606,0.0],[25.766829,45.14061,0.0],[25.766832,45.140613,0.0],[25.766836,45.140616,0.0],[25.766839,45.140619,0.0],[25.766842,45.140622,0.0],[25.766846,45.140626,0.0],[25.766849,45.140629,0.0],[25.766853,45.140632,0.0],[25.766856,45.140635,0.0],[25.76686,45.140638,0.0],[25.766864,45.14064,0.0],[25.766868,45.140643,0.0],[25.766872,45.140646,0.0],[25.766876,45.140649,0.0],[25.76688,45.140651,0.0],[25.766884,45.140654,0.0],[25.766888,45.140657,0.0],[25.766892,45.140659,0.0],[25.766897,45.140662,0.0],[25.766901,45.140664,0.0],[25.766906,45.140666,0.0],[25.76691,45.140669,0.0],[25.766915,45.140671,0.0],[25.766919,45.140673,0.0],[25.766924,45.140675,0.0],[25.766929,45.140677,0.0],[25.766933,45.14068,0.0],[25.766938,45.140681,0.0],[25.766943,45.140683,0.0],[25.766948,45.140685,0.0],[25.766953,45.140687,0.0],[25.766958,45.140689,0.0],[25.766963,45.14069,0.0],[25.766968,45.140692,0.0],[25.766973,45.140694,0.0],[25.766979,45.140695,0.0],[25.766984,45.140696,0.0],[25.766989,45.140698,0.0],[25.766994,45.140699,0.0],[25.767,45.1407,0.0],[25.767005,45.140701,0.0],[25.76701,45.140703,0.0],[25.767016,45.140704,0.0],[25.767021,45.140704,0.0],[25.767026,45.140705,0.0],[25.767032,45.140706,0.0],[25.767037,45.140707,0.0],[25.767043,45.140708,0.0],[25.767048,45.140708,0.0],[25.767054,45.140709,0.0],[25.767059,45.140709,0.0],[25.767065,45.14071,0.0],[25.767071,45.14071,0.0],[25.767076,45.14071,0.0],[25.767082,45.14071,0.0],[25.767087,45.140711,0.0],[25.767093,45.140711,0.0],[25.767098,45.140711,0.0]]],"type":"MultiLineString"},"properties":{"id":null,"_s":{"f":"#ff6011","fo":0.0,"s":"#000000","so":1.0,"w":5.67,"r":5.0,"st":[{"s":"#000000","so":1.0,"w":5.67,"cap":"round","join":"round"},{"s":"#ff6011","so":1.0,"w":4.02,"cap":"round","join":"round"}],"cap":"round","join":"round","ml":true}}},{"type":"Feature","geometry":{"coordinates":[[[25.764587,45.163929,0.0],[25.764595,45.163929,0.0],[25.764602,45.163929,0.0],[25.764609,45.163929,0.0],[25.764616,45.163928,0.0],[25.764624,45.163928,0.0],[25.764631,45.163927,0.0],[25.764638,45.163927,0.0],[25.764645,45.163926,0.0],[25.764652,45.163925,0.0],[25.76466,45.163924,0.0],[25.764667,45.163923,0.0],[25.764674,45.163922,0.0],[25.764681,45.163921,0.0],[25.764688,45.16392,0.0],[25.764695,45.163918,0.0],[25.764702,45.163917,0.0],[25.764709,45.163915,0.0],[25.764716,45.163914,0.0],[25.764723,45.163912,0.0],[25.764729,45.16391,0.0],[25.764736,45.163909,0.0],[25.764743,45.163907,0.0],[25.764749,45.163905,0.0],[25.764756,45.163903,0.0],[25.764763,45.1639,0.0],[25.764769,45.163898,0.0],[25.764776,45.163896,0.0],[25.764782,45.163893,0.0],[25.764788,45.163891,0.0],[25.764795,45.163888,0.0],[25.764801,45.163886,0.0],[25.764807,45.163883,0.0],[25.764813,45.16388,0.0],[25.764819,45.163877,0.0],[25.764825,45.163874,0.0],[25.764831,45.163871,0.0],[25.764837,45.163868,0.0],[25.764842,45.163865,0.0],[25.764848,45.163862,0.0],[25.764854,45.163859,0.0],[25.764859,45.163855,0.0],[25.764864,45.163852,0.0],[25.76487,45.163848,0.0],[25.764875,45.163845,0.0],[25.76488,45.163841,0.0],[25.764885,45.163837,0.0],[25.76489,45.163834,0.0],[25.764895,45.16383,0.0],[25.7649,45.163826,0.0],[25.764904,45.163822,0.0],[25.764909,45.163818,0.0],[25.764913,45.163814,0.0],[25.764918,45.16381,0.0],[25.764922,45.163806,0.0],[25.764926,45.163801,0.0],[25.76493,45.163797,0.0],[25.764934,45.163793,0.0],[25.764938,45.163789,0.0],[25.764942,45.163784,0.0],[25.764945,45.16378,0.0],[25.764949,45.163775,0.0],[25.764952,45.163771,0.0],[25.764956,45.163766,0.0],[25.764959,45.163762,0.0],[25.764962,45.163757,0.0],[25.764965,45.163752,0.0],[25.764968,45.163747,0.0],[25.76497,45.163743,0.0],[25.764973,45.163738,0.0],[25.764975,45.163733,0.0],[25.764978,45.163728,0.0],[25.76498,45.163723,0.0],[25.764982,45.163718,0.0],[25.764984,45.163714,0.0],[25.764986,45.163709,0.0],[25.764988,45.163704,0.0],[25.764989,45.163699,0.0],[25.764991,45.163694,0.0],[25.764992,45.163689,0.0],[25.764993,45.163683,0.0],[25.764995,45.163678,0.0],[25.764996,45.163673,0.0],[25.764996,45.163668,0.0],[25.764997,45.163663,0.0],[25.764998,45.163658,0.0],[25.764998,45.163653,0.0],[25.764999,45.163648,0.0],[25.764999,45.163643,0.0],[25.764999,45.163638,0.0],[25.764999,45.163632,0.0],[25.764999,45.163627,0.0],[25.764999,45.163622,0.0],[25.764998,45.163617,0.0],[25.764998,45.163612,0.0],[25.764997,45.163607,0.0],[25.764996,45.163602,0.0],[25.764995,45.163597,0.0],[25.764994,45.163591,0.0],[25.764993,45.163586,0.0],[25.764992,45.163581,0.0],[25.764991,45.163576,0.0],[25.764989,45.163571,0.0],[25.764987,45.163566,0.0],[25.764986,45.163561,0.0],[25.764984,45.163556,0.0],[25.764982,45.163551,0.0],[25.76498,45.163547,0.0],[25.764977,45.163542,0.0],[25.764975,45.163537,0.0],[25.764973,45.163532,0.0],[25.76497,45.163527,0.0],[25.764967,45.163522,0.0],[25.764964,45.163518,0.0],[25.764961,45.163513,0.0],[25.764958,45.163508,0.0],[25.764955,45.163504,0.0],[25.764952,45.163499,0.0],[25.764949,45.163495,0.0],[25.764945,45.16349,0.0],[25.764941,45.163486,0.0],[25.764938,45.163481,0.0],[25.764934,45.163477,0.0],[25.76493,45.163473,0.0],[25.764926,45.163468,0.0],[25.764922,45.163464,0.0],[25.764917,45.16346,0.0],[25.764913,45.163456,0.0],[25.764908,45.163452,0.0],[25.764904,45.163448,0.0],[25.764899,45.163444,0.0],[25.764894,45.16344,0.0],[25.76489,45.163436,0.0],[25.764885,45.163433,0.0],[25.76488,45.163429,0.0],[25.764875,45.163425,0.0],[25.764869,45.163422,0.0],[25.764864,45.163418,0.0],[25.764859,45.163415,0.0],[25.764853,45.163411,0.0],[25.764848,45.163408,0.0],[25.764842,45.163405,0.0],[25.764836,45.163402,0.0],[25.76483,45.163399,0.0],[25.764825,45.163396,0.0],[25.764819,45.163393,0.0],[25.764813,45.16339,0.0],[25.764806,45.163387,0.0],[25.7648,45.163384,0.0],[25.764794,45.163382,0.0],[25.764788,45.163379,0.0],[25.764781,45.163377,0.0],[25.764775,45.163374,0.0],[25.764769,45.163372,0.0],[25.764762,45.16337,0.0],[25.764756,45.163368,0.0],[25.764749,45.163365,0.0],[25.764742,45.163363,0.0],[25.764735,45.163362,0.0],[25.764729,45.16336,0.0],[25.764722,45.163358,0.0],[25.764715,45.163356,0.0],[25.764708,45.163355,0.0],[25.764701,45.163353,0.0],[25.764694,45.163352,0.0],[25.764687,45.163351,0.0],[25.76468,45.163349,0.0],[25.764673,45.163348,0.0],[25.764666,45.163347,0.0],[25.764659,45.163346,0.0],[25.764652,45.163345,0.0],[25.764645,45.163344,0.0],[25.764637,45.163344,0.0],[25.76463,45.163343,0.0],[25.764623,45.163343,0.0],[25.764616,45.163342,0.0],[25.764609,45.163342,0.0],[25.764601,45.163341,0.0],[25.764594,45.163341,0.0],[25.764587,45.163341,0.0],[25.76458,45.163341,0.0],[25.764572,45.163341,0.0],[25.764565,45.163341,0.0],[25.764558,45.163342,0.0],[25.764551,45.163342,0.0],[25.764543,45.163343,0.0],[25.764536,45.163343,0.0],[25.764529,45.163344,0.0],[25.764522,45.163344,0.0],[25.764515,45.163345,0.0],[25.764507,45.163346,0.0],[25.7645,45.163347,0.0],[25.764493,45.163348,0.0],[25.764486,45.163349,0.0],[25.764479,45.163351,0.0],[25.764472,45.163352,0.0],[25.764465,45.163353,0.0],[25.764458,45.163355,0.0],[25.764451,45.163356,0.0],[25.764444,45.163358,0.0],[25.764438,45.16336,0.0],[25.764431,45.163362,0.0],[25.764424,45.163364,0.0],[25.764417,45.163366,0.0],[25.764411,45.163368,0.0],[25.764404,45.16337,0.0],[25.764398,45.163372,0.0],[25.764391,45.163375,0.0],[25.764385,45.163377,0.0],[25.764379,45.163379,0.0],[25.764372,45.163382,0.0],[25.764366,45.163385,0.0],[25.76436,45.163387,0.0],[25.764354,45.16339,0.0],[25.764348,45.163393,0.0],[25.764342,45.163396,0.0],[25.764336,45.163399,0.0],[25.76433,45.163402,0.0],[25.764325,45.163405,0.0],[25.764319,45.163408,0.0],[25.764313,45.163412,0.0],[25.764308,45.163415,0.0],[25.764303,45.163419,0.0],[25.764297,45.163422,0.0],[25.764292,45.163426,0.0],[25.764287,45.163429,0.0],[25.764282,45.163433,0.0],[25.764277,45.163437,0.0],[25.764272,45.163441,0.0],[25.764267,45.163444,0.0],[25.764263,45.163448,0.0],[25.764258,45.163452,0.0],[25.764254,45.163456,0.0],[25.764249,45.163461,0.0],[25.764245,45.163465,0.0],[25.764241,45.163469,0.0],[25.764237,45.163473,0.0],[25.764233,45.163477,0.0],[25.764229,45.163482,0.0],[25.764225,45.163486,0.0],[25.764222,45.163491,0.0],[25.764218,45.163495,0.0],[25.764215,45.1635,0.0],[25.764211,45.163504,0.0],[25.764208,45.163509,0.0],[25.764205,45.163513,0.0],[25.764202,45.163518,0.0],[25.764199,45.163523,0.0],[25.764197,45.163528,0.0],[25.764194,45.163532,0.0],[25.764192,45.163537,0.0],[25.764189,45.163542,0.0],[25.764187,45.163547,0.0],[25.764185,45.163552,0.0],[25.764183,45.163557,0.0],[25.764181,45.163562,0.0],[25.764179,45.163567,0.0],[25.764178,45.163572,0.0],[25.764176,45.163577,0.0],[25.764175,45.163582,0.0],[25.764174,45.163587,0.0],[25.764172,45.163592,0.0],[25.764171,45.163597,0.0],[25.764171,45.163602,0.0],[25.76417,45.163607,0.0],[25.764169,45.163612,0.0],[25.764169,45.163617,0.0],[25.764168,45.163623,0.0],[25.764168,45.163628,0.0],[25.764168,45.163633,0.0],[25.764168,45.163638,0.0],[25.764168,45.163643,0.0],[25.764168,45.163648,0.0],[25.764169,45.163653,0.0],[25.764169,45.163658,0.0],[25.76417,45.163664,0.0],[25.764171,45.163669,0.0],[25.764172,45.163674,0.0],[25.764173,45.163679,0.0],[25.764174,45.163684,0.0],[25.764175,45.163689,0.0],[25.764176,45.163694,0.0],[25.764178,45.163699,0.0],[25.76418,45.163704,0.0],[25.764181,45.163709,0.0],[25.764183,45.163714,0.0],[25.764185,45.163719,0.0],[25.764187,45.163724,0.0],[25.76419,45.163729,0.0],[25.764192,45.163734,0.0],[25.764194,45.163738,0.0],[25.764197,45.163743,0.0],[25.7642,45.163748,0.0],[25.764203,45.163753,0.0],[25.764205,45.163757,0.0],[25.764209,45.163762,0.0],[25.764212,45.163767,0.0],[25.764215,45.163771,0.0],[25.764218,45.163776,0.0],[25.764222,45.16378,0.0],[25.764226,45.163785,0.0],[25.764229,45.163789,0.0],[25.764233,45.163793,0.0],[25.764237,45.163798,0.0],[25.764241,45.163802,0.0],[25.764245,45.163806,0.0],[25.76425,45.16381,0.0],[25.764254,45.163814,0.0],[25.764258,45.163818,0.0],[25.764263,45.163822,0.0],[25.764268,45.163826,0.0],[25.764272,45.16383,0.0],[25.764277,45.163834,0.0],[25.764282,45.163838,0.0],[25.764287,45.163841,0.0],[25.764292,45.163845,0.0],[25.764298,45.163849,0.0],[25.764303,45.163852,0.0],[25.764308,45.163856,0.0],[25.764314,45.163859,0.0],[25.764319,45.163862,0.0],[25.764325,45.163865,0.0],[25.764331,45.163869,0.0],[25.764337,45.163872,0.0],[25.764342,45.163875,0.0],[25.764348,45.163878,0.0],[25.764354,45.16388,0.0],[25.76436,45.163883,0.0],[25.764367,45.163886,0.0],[25.764373,45.163889,0.0],[25.764379,45.163891,0.0],[25.764385,45.163894,0.0],[25.764392,45.163896,0.0],[25.764398,45.163898,0.0],[25.764405,45.163901,0.0],[25.764411,45.163903,0.0],[25.764418,45.163905,0.0],[25.764425,45.163907,0.0],[25.764431,45.163909,0.0],[25.764438,45.163911,0.0],[25.764445,45.163912,0.0],[25.764452,45.163914,0.0],[25.764459,45.163916,0.0],[25.764466,45.163917,0.0],[25.764473,45.163919,0.0],[25.76448,45.16392,0.0],[25.764487,45.163921,0.0],[25.764494,45.163922,0.0],[25.764501,45.163923,0.0],[25.764508,45.163924,0.0],[25.764515,45.163925,0.0],[25.764522,45.163926,0.0],[25.76453,45.163927,0.0],[25.764537,45.163927,0.0],[25.764544,45.163928,0.0],[25.764551,45.163928,0.0],[25.764558,45.163929,0.0],[25.764566,45.163929,0.0],[25.764573,45.163929,0.0],[25.76458,45.163929,0.0],[25.764587,45.163929,0.0]]],"type":"MultiLineString"},"properties":{"id":null,"_s":{"f":"#ff6011","fo":0.0,"s":"#000000","so":1.0,"w":5.67,"r":5.0,"st":[{"s":"#000000","so":1.0,"w":5.67,"cap":"round","join":"round"},{"s":"#ff6011","so":1.0,"w":4.02,"cap":"round","join":"round"}],"cap":"round","join":"round","ml":true}}},{"type":"Feature","geometry":{"coordinates":[[[25.760094,45.125524,0.0],[25.760101,45.125524,0.0],[25.760108,45.125524,0.0],[25.760115,45.125524,0.0],[25.760122,45.125523,0.0],[25.760129,45.125523,0.0],[25.760136,45.125522,0.0],[25.760143,45.125522,0.0],[25.76015,45.125521,0.0],[25.760157,45.12552,0.0],[25.760164,45.12552,0.0],[25.760171,45.125519,0.0],[25.760178,45.125518,0.0],[25.760185,45.125516,0.0],[25.760192,45.125515,0.0],[25.760199,45.125514,0.0],[25.760206,45.125512,0.0],[25.760212,45.125511,0.0],[25.760219,45.125509,0.0],[25.760226,45.125508,0.0],[25.760232,45.125506,0.0],[25.760239,45.125504,0.0],[25.760246,45.125502,0.0],[25.760252,45.1255,0.0],[25.760259,45.125498,0.0],[25.760265,45.125496,0.0],[25.760271,45.125494,0.0],[25.760278,45.125492,0.0],[25.760284,45.125489,0.0],[25.76029,45.125487,0.0],[25.760296,45.125484,0.0],[25.760302,45.125482,0.0],[25.760308,45.125479,0.0],[25.760314,45.125477,0.0],[25.76032,45.125474,0.0],[25.760326,45.125471,0.0],[25.760332,45.125468,0.0],[25.760337,45.125465,0.0],[25.760343,45.125462,0.0],[25.760348,45.125459,0.0],[25.760354,45.125455,0.0],[25.760359,45.125452,0.0],[25.760364,45.125449,0.0],[25.76037,45.125445,0.0],[25.760375,45.125442,0.0],[25.76038,45.125438,0.0],[25.760385,45.125435,0.0],[25.760389,45.125431,0.0],[25.760394,45.125427,0.0],[25.760399,45.125423,0.0],[25.760403,45.12542,0.0],[25.760408,45.125416,0.0],[25.760412,45.125412,0.0],[25.760416,45.125408,0.0],[25.760421,45.125404,0.0],[25.760425,45.1254,0.0],[25.760429,45.125395,0.0],[25.760432,45.125391,0.0],[25.760436,45.125387,0.0],[25.76044,45.125383,0.0],[25.760443,45.125378,0.0],[25.760447,45.125374,0.0],[25.76045,45.125369,0.0],[25.760453,45.125365,0.0],[25.760456,45.125361,0.0],[25.760459,45.125356,0.0],[25.760462,45.125351,0.0],[25.760465,45.125347,0.0],[25.760468,45.125342,0.0],[25.76047,45.125337,0.0],[25.760473,45.125333,0.0],[25.760475,45.125328,0.0],[25.760477,45.125323,0.0],[25.760479,45.125318,0.0],[25.760481,45.125314,0.0],[25.760483,45.125309,0.0],[25.760485,45.125304,0.0],[25.760486,45.125299,0.0],[25.760488,45.125294,0.0],[25.760489,45.125289,0.0],[25.76049,45.125284,0.0],[25.760491,45.125279,0.0],[25.760492,45.125274,0.0],[25.760493,45.125269,0.0],[25.760494,45.125264,0.0],[25.760495,45.125259,0.0],[25.760495,45.125254,0.0],[25.760496,45.125249,0.0],[25.760496,45.125244,0.0],[25.760496,45.125239,0.0],[25.760496,45.125234,0.0],[25.760496,45.125229,0.0],[25.760495,45.125224,0.0],[25.760495,45.125219,0.0],[25.760495,45.125214,0.0],[25.760494,45.125209,0.0],[25.760493,45.125204,0.0],[25.760492,45.125199,0.0],[25.760491,45.125194,0.0],[25.76049,45.125189,0.0],[25.760489,45.125184,0.0],[25.760488,45.125179,0.0],[25.760486,45.125175,0.0],[25.760485,45.12517,0.0],[25.760483,45.125165,0.0],[25.760481,45.12516,0.0],[25.760479,45.125155,0.0],[25.760477,45.12515,0.0],[25.760475,45.125146,0.0],[25.760473,45.125141,0.0],[25.76047,45.125136,0.0],[25.760468,45.125131,0.0],[25.760465,45.125127,0.0],[25.760462,45.125122,0.0],[25.760459,45.125118,0.0],[25.760456,45.125113,0.0],[25.760453,45.125109,0.0],[25.76045,45.125104,0.0],[25.760447,45.1251,0.0],[25.760443,45.125095,0.0],[25.76044,45.125091,0.0],[25.760436,45.125087,0.0],[25.760432,45.125082,0.0],[25.760428,45.125078,0.0],[25.760424,45.125074,0.0],[25.76042,45.12507,0.0],[25.760416,45.125066,0.0],[25.760412,45.125062,0.0],[25.760407,45.125058,0.0],[25.760403,45.125054,0.0],[25.760398,45.12505,0.0],[25.760394,45.125046,0.0],[25.760389,45.125043,0.0],[25.760384,45.125039,0.0],[25.760379,45.125035,0.0],[25.760374,45.125032,0.0],[25.760369,45.125028,0.0],[25.760364,45.125025,0.0],[25.760359,45.125022,0.0],[25.760353,45.125018,0.0],[25.760348,45.125015,0.0],[25.760342,45.125012,0.0],[25.760337,45.125009,0.0],[25.760331,45.125006,0.0],[25.760325,45.125003,0.0],[25.76032,45.125,0.0],[25.760314,45.124997,0.0],[25.760308,45.124995,0.0],[25.760302,45.124992,0.0],[25.760296,45.124989,0.0],[25.76029,45.124987,0.0],[25.760283,45.124984,0.0],[25.760277,45.124982,0.0],[25.760271,45.12498,0.0],[25.760264,45.124978,0.0],[25.760258,45.124975,0.0],[25.760252,45.124973,0.0],[25.760245,45.124971,0.0],[25.760238,45.12497,0.0],[25.760232,45.124968,0.0],[25.760225,45.124966,0.0],[25.760218,45.124964,0.0],[25.760212,45.124963,0.0],[25.760205,45.124961,0.0],[25.760198,45.12496,0.0],[25.760191,45.124959,0.0],[25.760184,45.124958,0.0],[25.760178,45.124956,0.0],[25.760171,45.124955,0.0],[25.760164,45.124954,0.0],[25.760157,45.124954,0.0],[25.76015,45.124953,0.0],[25.760143,45.124952,0.0],[25.760136,45.124951,0.0],[25.760129,45.124951,0.0],[25.760121,45.12495,0.0],[25.760114,45.12495,0.0],[25.760107,45.12495,0.0],[25.7601,45.12495,0.0],[25.760093,45.12495,0.0],[25.760086,45.12495,0.0],[25.760079,45.12495,0.0],[25.760072,45.12495,0.0],[25.760065,45.12495,0.0],[25.760058,45.124951,0.0],[25.760051,45.124951,0.0],[25.760044,45.124951,0.0],[25.760037,45.124952,0.0],[25.76003,45.124953,0.0],[25.760023,45.124954,0.0],[25.760016,45.124954,0.0],[25.760009,45.124955,0.0],[25.760002,45.124956,0.0],[25.759995,45.124958,0.0],[25.759988,45.124959,0.0],[25.759981,45.12496,0.0],[25.759974,45.124962,0.0],[25.759968,45.124963,0.0],[25.759961,45.124965,0.0],[25.759954,45.124966,0.0],[25.759948,45.124968,0.0],[25.759941,45.12497,0.0],[25.759934,45.124972,0.0],[25.759928,45.124974,0.0],[25.759921,45.124976,0.0],[25.759915,45.124978,0.0],[25.759909,45.12498,0.0],[25.759902,45.124982,0.0],[25.759896,45.124985,0.0],[25.75989,45.124987,0.0],[25.759884,45.124989,0.0],[25.759878,45.124992,0.0],[25.759872,45.124995,0.0],[25.759866,45.124997,0.0],[25.75986,45.125,0.0],[25.759854,45.125003,0.0],[25.759848,45.125006,0.0],[25.759843,45.125009,0.0],[25.759837,45.125012,0.0],[25.759832,45.125015,0.0],[25.759826,45.125019,0.0],[25.759821,45.125022,0.0],[25.759815,45.125025,0.0],[25.75981,45.125029,0.0],[25.759805,45.125032,0.0],[25.7598,45.125036,0.0],[25.759795,45.125039,0.0],[25.75979,45.125043,0.0],[25.759786,45.125047,0.0],[25.759781,45.125051,0.0],[25.759777,45.125054,0.0],[25.759772,45.125058,0.0],[25.759768,45.125062,0.0],[25.759763,45.125066,0.0],[25.759759,45.12507,0.0],[25.759755,45.125074,0.0],[25.759751,45.125079,0.0],[25.759747,45.125083,0.0],[25.759744,45.125087,0.0],[25.75974,45.125091,0.0],[25.759736,45.125096,0.0],[25.759733,45.1251,0.0],[25.75973,45.125104,0.0],[25.759727,45.125109,0.0],[25.759723,45.125113,0.0],[25.75972,45.125118,0.0],[25.759718,45.125123,0.0],[25.759715,45.125127,0.0],[25.759712,45.125132,0.0],[25.75971,45.125137,0.0],[25.759707,45.125141,0.0],[25.759705,45.125146,0.0],[25.759703,45.125151,0.0],[25.759701,45.125156,0.0],[25.759699,45.12516,0.0],[25.759697,45.125165,0.0],[25.759695,45.12517,0.0],[25.759694,45.125175,0.0],[25.759692,45.12518,0.0],[25.759691,45.125185,0.0],[25.75969,45.12519,0.0],[25.759688,45.125195,0.0],[25.759687,45.1252,0.0],[25.759687,45.125205,0.0],[25.759686,45.12521,0.0],[25.759685,45.125215,0.0],[25.759685,45.12522,0.0],[25.759684,45.125225,0.0],[25.759684,45.12523,0.0],[25.759684,45.125235,0.0],[25.759684,45.12524,0.0],[25.759684,45.125245,0.0],[25.759684,45.12525,0.0],[25.759685,45.125255,0.0],[25.759685,45.12526,0.0],[25.759686,45.125265,0.0],[25.759687,45.12527,0.0],[25.759688,45.125275,0.0],[25.759689,45.12528,0.0],[25.75969,45.125285,0.0],[25.759691,45.12529,0.0],[25.759692,45.125294,0.0],[25.759694,45.125299,0.0],[25.759695,45.125304,0.0],[25.759697,45.125309,0.0],[25.759699,45.125314,0.0],[25.759701,45.125319,0.0],[25.759703,45.125324,0.0],[25.759705,45.125328,0.0],[25.759707,45.125333,0.0],[25.75971,45.125338,0.0],[25.759712,45.125343,0.0],[25.759715,45.125347,0.0],[25.759718,45.125352,0.0],[25.759721,45.125356,0.0],[25.759724,45.125361,0.0],[25.759727,45.125365,0.0],[25.75973,45.12537,0.0],[25.759733,45.125374,0.0],[25.759737,45.125379,0.0],[25.75974,45.125383,0.0],[25.759744,45.125387,0.0],[25.759748,45.125392,0.0],[25.759752,45.125396,0.0],[25.759756,45.1254,0.0],[25.75976,45.125404,0.0],[25.759764,45.125408,0.0],[25.759768,45.125412,0.0],[25.759772,45.125416,0.0],[25.759777,45.12542,0.0],[25.759781,45.125424,0.0],[25.759786,45.125428,0.0],[25.759791,45.125431,0.0],[25.759796,45.125435,0.0],[25.759801,45.125439,0.0],[25.759806,45.125442,0.0],[25.759811,45.125446,0.0],[25.759816,45.125449,0.0],[25.759821,45.125452,0.0],[25.759827,45.125456,0.0],[25.759832,45.125459,0.0],[25.759837,45.125462,0.0],[25.759843,45.125465,0.0],[25.759849,45.125468,0.0],[25.759854,45.125471,0.0],[25.75986,45.125474,0.0],[25.759866,45.125477,0.0],[25.759872,45.125479,0.0],[25.759878,45.125482,0.0],[25.759884,45.125485,0.0],[25.75989,45.125487,0.0],[25.759897,45.12549,0.0],[25.759903,45.125492,0.0],[25.759909,45.125494,0.0],[25.759915,45.125496,0.0],[25.759922,45.125499,0.0],[25.759928,45.125501,0.0],[25.759935,45.125503,0.0],[25.759941,45.125504,0.0],[25.759948,45.125506,0.0],[25.759955,45.125508,0.0],[25.759961,45.12551,0.0],[25.759968,45.125511,0.0],[25.759975,45.125513,0.0],[25.759982,45.125514,0.0],[25.759989,45.125515,0.0],[25.759995,45.125516,0.0],[25.760002,45.125518,0.0],[25.760009,45.125519,0.0],[25.760016,45.12552,0.0],[25.760023,45.12552,0.0],[25.76003,45.125521,0.0],[25.760037,45.125522,0.0],[25.760044,45.125523,0.0],[25.760051,45.125523,0.0],[25.760058,45.125523,0.0],[25.760065,45.125524,0.0],[25.760073,45.125524,0.0],[25.76008,45.125524,0.0],[25.760087,45.125524,0.0],[25.760094,45.125524,0.0]]],"type":"MultiLineString"},"properties":{"id":null,"_s":{"f":"#ff6011","fo":0.0,"s":"#000000","so":1.0,"w":5.67,"r":5.0,"st":[{"s":"#000000","so":1.0,"w":5.67,"cap":"round","join":"round"},{"s":"#ff6011","so":1.0,"w":4.02,"cap":"round","join":"round"}],"cap":"round","join":"round","ml":true}}},{"type":"Feature","geometry":{"coordinates":[[[25.752047,45.105258,0.0],[25.752072,45.105257,0.0],[25.752096,45.105257,0.0],[25.752121,45.105256,0.0],[25.752146,45.105255,0.0],[25.752171,45.105253,0.0],[25.752196,45.105251,0.0],[25.752221,45.105249,0.0],[25.752246,45.105247,0.0],[25.75227,45.105244,0.0],[25.752295,45.105241,0.0],[25.752319,45.105237,0.0],[25.752344,45.105234,0.0],[25.752368,45.10523,0.0],[25.752392,45.105225,0.0],[25.752416,45.105221,0.0],[25.75244,45.105216,0.0],[25.752464,45.105211,0.0],[25.752488,45.105205,0.0],[25.752512,45.105199,0.0],[25.752535,45.105193,0.0],[25.752558,45.105187,0.0],[25.752582,45.10518,0.0],[25.752605,45.105173,0.0],[25.752627,45.105166,0.0],[25.75265,45.105159,0.0],[25.752673,45.105151,0.0],[25.752695,45.105143,0.0],[25.752717,45.105135,0.0],[25.752739,45.105126,0.0],[25.75276,45.105117,0.0],[25.752782,45.105108,0.0],[25.752803,45.105099,0.0],[25.752824,45.105089,0.0],[25.752844,45.105079,0.0],[25.752865,45.105069,0.0],[25.752885,45.105059,0.0],[25.752905,45.105048,0.0],[25.752925,45.105037,0.0],[25.752944,45.105026,0.0],[25.752963,45.105015,0.0],[25.752982,45.105003,0.0],[25.753001,45.104991,0.0],[25.753019,45.104979,0.0],[25.753037,45.104967,0.0],[25.753055,45.104954,0.0],[25.753072,45.104941,0.0],[25.753089,45.104929,0.0],[25.753106,45.104915,0.0],[25.753122,45.104902,0.0],[25.753138,45.104888,0.0],[25.753154,45.104875,0.0],[25.753169,45.104861,0.0],[25.753184,45.104847,0.0],[25.753199,45.104832,0.0],[25.753213,45.104818,0.0],[25.753227,45.104803,0.0],[25.753241,45.104788,0.0],[25.753254,45.104773,0.0],[25.753267,45.104758,0.0],[25.753279,45.104743,0.0],[25.753291,45.104727,0.0],[25.753303,45.104712,0.0],[25.753314,45.104696,0.0],[25.753325,45.10468,0.0],[25.753336,45.104664,0.0],[25.753346,45.104648,0.0],[25.753356,45.104632,0.0],[25.753365,45.104615,0.0],[25.753374,45.104599,0.0],[25.753382,45.104582,0.0],[25.753391,45.104565,0.0],[25.753398,45.104548,0.0],[25.753406,45.104532,0.0],[25.753412,45.104515,0.0],[25.753419,45.104497,0.0],[25.753425,45.10448,0.0],[25.75343,45.104463,0.0],[25.753436,45.104446,0.0],[25.75344,45.104428,0.0],[25.753445,45.104411,0.0],[25.753449,45.104393,0.0],[25.753452,45.104376,0.0],[25.753455,45.104358,0.0],[25.753458,45.104341,0.0],[25.75346,45.104323,0.0],[25.753462,45.104306,0.0],[25.753463,45.104288,0.0],[25.753464,45.10427,0.0],[25.753464,45.104253,0.0],[25.753464,45.104235,0.0],[25.753464,45.104217,0.0],[25.753463,45.104199,0.0],[25.753461,45.104182,0.0],[25.75346,45.104164,0.0],[25.753458,45.104147,0.0],[25.753455,45.104129,0.0],[25.753452,45.104111,0.0],[25.753448,45.104094,0.0],[25.753444,45.104076,0.0],[25.75344,45.104059,0.0],[25.753435,45.104042,0.0],[25.75343,45.104024,0.0],[25.753424,45.104007,0.0],[25.753418,45.10399,0.0],[25.753412,45.103973,0.0],[25.753405,45.103956,0.0],[25.753398,45.103939,0.0],[25.75339,45.103922,0.0],[25.753382,45.103905,0.0],[25.753373,45.103889,0.0],[25.753364,45.103872,0.0],[25.753355,45.103856,0.0],[25.753345,45.10384,0.0],[25.753335,45.103823,0.0],[25.753324,45.103807,0.0],[25.753313,45.103792,0.0],[25.753302,45.103776,0.0],[25.75329,45.10376,0.0],[25.753278,45.103745,0.0],[25.753266,45.103729,0.0],[25.753253,45.103714,0.0],[25.75324,45.103699,0.0],[25.753226,45.103684,0.0],[25.753212,45.10367,0.0],[25.753198,45.103655,0.0],[25.753183,45.103641,0.0],[25.753168,45.103627,0.0],[25.753153,45.103613,0.0],[25.753137,45.103599,0.0],[25.753121,45.103586,0.0],[25.753104,45.103572,0.0],[25.753088,45.103559,0.0],[25.753071,45.103546,0.0],[25.753053,45.103534,0.0],[25.753036,45.103521,0.0],[25.753018,45.103509,0.0],[25.752999,45.103497,0.0],[25.752981,45.103485,0.0],[25.752962,45.103473,0.0],[25.752943,45.103462,0.0],[25.752923,45.103451,0.0],[25.752904,45.10344,0.0],[25.752884,45.103429,0.0],[25.752863,45.103419,0.0],[25.752843,45.103409,0.0],[25.752822,45.103399,0.0],[25.752801,45.103389,0.0],[25.75278,45.10338,0.0],[25.752759,45.103371,0.0],[25.752737,45.103362,0.0],[25.752715,45.103353,0.0],[25.752693,45.103345,0.0],[25.752671,45.103337,0.0],[25.752648,45.103329,0.0],[25.752626,45.103322,0.0],[25.752603,45.103315,0.0],[25.75258,45.103308,0.0],[25.752557,45.103301,0.0],[25.752533,45.103295,0.0],[25.75251,45.103289,0.0],[25.752486,45.103283,0.0],[25.752463,45.103278,0.0],[25.752439,45.103272,0.0],[25.752415,45.103268,0.0],[25.752391,45.103263,0.0],[25.752366,45.103259,0.0],[25.752342,45.103255,0.0],[25.752318,45.103251,0.0],[25.752293,45.103248,0.0],[25.752268,45.103245,0.0],[25.752244,45.103242,0.0],[25.752219,45.103239,0.0],[25.752194,45.103237,0.0],[25.752169,45.103235,0.0],[25.752144,45.103234,0.0],[25.75212,45.103233,0.0],[25.752095,45.103232,0.0],[25.75207,45.103231,0.0],[25.752045,45.103231,0.0],[25.75202,45.103231,0.0],[25.751995,45.103231,0.0],[25.75197,45.103232,0.0],[25.751945,45.103233,0.0],[25.75192,45.103234,0.0],[25.751895,45.103236,0.0],[25.75187,45.103237,0.0],[25.751845,45.10324,0.0],[25.751821,45.103242,0.0],[25.751796,45.103245,0.0],[25.751771,45.103248,0.0],[25.751747,45.103251,0.0],[25.751723,45.103255,0.0],[25.751698,45.103259,0.0],[25.751674,45.103263,0.0],[25.75165,45.103268,0.0],[25.751626,45.103273,0.0],[25.751602,45.103278,0.0],[25.751578,45.103283,0.0],[25.751555,45.103289,0.0],[25.751531,45.103295,0.0],[25.751508,45.103302,0.0],[25.751485,45.103308,0.0],[25.751462,45.103315,0.0],[25.751439,45.103322,0.0],[25.751416,45.10333,0.0],[25.751394,45.103338,0.0],[25.751372,45.103346,0.0],[25.751349,45.103354,0.0],[25.751328,45.103363,0.0],[25.751306,45.103371,0.0],[25.751285,45.103381,0.0],[25.751263,45.10339,0.0],[25.751243,45.1034,0.0],[25.751222,45.103409,0.0],[25.751201,45.10342,0.0],[25.751181,45.10343,0.0],[25.751161,45.103441,0.0],[25.751142,45.103452,0.0],[25.751122,45.103463,0.0],[25.751103,45.103474,0.0],[25.751084,45.103486,0.0],[25.751066,45.103498,0.0],[25.751047,45.10351,0.0],[25.751029,45.103522,0.0],[25.751012,45.103534,0.0],[25.750994,45.103547,0.0],[25.750977,45.10356,0.0],[25.750961,45.103573,0.0],[25.750944,45.103587,0.0],[25.750928,45.1036,0.0],[25.750913,45.103614,0.0],[25.750897,45.103628,0.0],[25.750882,45.103642,0.0],[25.750868,45.103656,0.0],[25.750853,45.103671,0.0],[25.750839,45.103686,0.0],[25.750826,45.1037,0.0],[25.750812,45.103715,0.0],[25.7508,45.103731,0.0],[25.750787,45.103746,0.0],[25.750775,45.103761,0.0],[25.750763,45.103777,0.0],[25.750752,45.103793,0.0],[25.750741,45.103809,0.0],[25.750731,45.103825,0.0],[25.75072,45.103841,0.0],[25.750711,45.103857,0.0],[25.750701,45.103874,0.0],[25.750692,45.10389,0.0],[25.750684,45.103907,0.0],[25.750676,45.103923,0.0],[25.750668,45.10394,0.0],[25.750661,45.103957,0.0],[25.750654,45.103974,0.0],[25.750647,45.103991,0.0],[25.750641,45.104008,0.0],[25.750636,45.104026,0.0],[25.750631,45.104043,0.0],[25.750626,45.10406,0.0],[25.750622,45.104078,0.0],[25.750618,45.104095,0.0],[25.750614,45.104113,0.0],[25.750611,45.10413,0.0],[25.750609,45.104148,0.0],[25.750606,45.104165,0.0],[25.750605,45.104183,0.0],[25.750603,45.104201,0.0],[25.750603,45.104218,0.0],[25.750602,45.104236,0.0],[25.750602,45.104254,0.0],[25.750603,45.104272,0.0],[25.750603,45.104289,0.0],[25.750605,45.104307,0.0],[25.750607,45.104324,0.0],[25.750609,45.104342,0.0],[25.750611,45.10436,0.0],[25.750614,45.104377,0.0],[25.750618,45.104395,0.0],[25.750622,45.104412,0.0],[25.750626,45.10443,0.0],[25.750631,45.104447,0.0],[25.750636,45.104464,0.0],[25.750642,45.104482,0.0],[25.750648,45.104499,0.0],[25.750654,45.104516,0.0],[25.750661,45.104533,0.0],[25.750669,45.10455,0.0],[25.750676,45.104567,0.0],[25.750684,45.104583,0.0],[25.750693,45.1046,0.0],[25.750702,45.104616,0.0],[25.750711,45.104633,0.0],[25.750721,45.104649,0.0],[25.750731,45.104665,0.0],[25.750742,45.104681,0.0],[25.750753,45.104697,0.0],[25.750764,45.104713,0.0],[25.750776,45.104728,0.0],[25.750788,45.104744,0.0],[25.750801,45.104759,0.0],[25.750813,45.104774,0.0],[25.750827,45.104789,0.0],[25.75084,45.104804,0.0],[25.750854,45.104819,0.0],[25.750869,45.104833,0.0],[25.750883,45.104848,0.0],[25.750898,45.104862,0.0],[25.750914,45.104876,0.0],[25.750929,45.104889,0.0],[25.750946,45.104903,0.0],[25.750962,45.104916,0.0],[25.750979,45.10493,0.0],[25.750996,45.104942,0.0],[25.751013,45.104955,0.0],[25.751031,45.104968,0.0],[25.751049,45.10498,0.0],[25.751067,45.104992,0.0],[25.751086,45.105004,0.0],[25.751104,45.105015,0.0],[25.751124,45.105027,0.0],[25.751143,45.105038,0.0],[25.751163,45.105049,0.0],[25.751183,45.105059,0.0],[25.751203,45.10507,0.0],[25.751223,45.10508,0.0],[25.751244,45.10509,0.0],[25.751265,45.105099,0.0],[25.751286,45.105109,0.0],[25.751308,45.105118,0.0],[25.751329,45.105127,0.0],[25.751351,45.105135,0.0],[25.751373,45.105144,0.0],[25.751395,45.105152,0.0],[25.751418,45.105159,0.0],[25.751441,45.105167,0.0],[25.751463,45.105174,0.0],[25.751486,45.105181,0.0],[25.751509,45.105188,0.0],[25.751533,45.105194,0.0],[25.751556,45.1052,0.0],[25.75158,45.105206,0.0],[25.751604,45.105211,0.0],[25.751628,45.105216,0.0],[25.751652,45.105221,0.0],[25.751676,45.105226,0.0],[25.7517,45.10523,0.0],[25.751724,45.105234,0.0],[25.751749,45.105238,0.0],[25.751773,45.105241,0.0],[25.751798,45.105244,0.0],[25.751823,45.105247,0.0],[25.751847,45.105249,0.0],[25.751872,45.105251,0.0],[25.751897,45.105253,0.0],[25.751922,45.105255,0.0],[25.751947,45.105256,0.0],[25.751972,45.105257,0.0],[25.751997,45.105257,0.0],[25.752022,45.105258,0.0],[25.752047,45.105258,0.0]]],"type":"MultiLineString"},"properties":{"id":null,"_s":{"f":"#ff6011","fo":0.0,"s":"#000000","so":1.0,"w":5.67,"r":5.0,"st":[{"s":"#000000","so":1.0,"w":5.67,"cap":"round","join":"round"},{"s":"#ff6011","so":1.0,"w":4.02,"cap":"round","join":"round"}],"cap":"round","join":"round","ml":true}}}]}