{"type":"FeatureCollection","features":[{"type":"Feature","geometry":{"coordinates":[[[[25.972409,44.898666,0.0],[25.972741,44.898192,0.0],[25.972767,44.898155,0.0],[25.973005,44.898241,0.0],[25.973637,44.897427,0.0],[25.973656,44.897403,0.0],[25.974482,44.896351,0.0],[25.974391,44.896321,0.0],[25.974558,44.896106,0.0],[25.97473,44.895886,0.0],[25.974975,44.89557,0.0],[25.974535,44.895396,0.0],[25.973887,44.89514,0.0],[25.974373,44.894533,0.0],[25.973611,44.894229,0.0],[25.973134,44.894044,0.0],[25.97312,44.894039,0.0],[25.972523,44.893797,0.0],[25.97169,44.894865,0.0],[25.971666,44.894896,0.0],[25.971653,44.894913,0.0],[25.971612,44.894966,0.0],[25.971593,44.89499,0.0],[25.971297,44.895375,0.0],[25.971269,44.89541,0.0],[25.971,44.895747,0.0],[25.970931,44.895839,0.0],[25.970504,44.896408,0.0],[25.970299,44.896645,0.0],[25.970283,44.89667,0.0],[25.970222,44.896746,0.0],[25.969949,44.897083,0.0],[25.970336,44.897233,0.0],[25.969993,44.897717,0.0],[25.971768,44.898416,0.0],[25.972409,44.898666,0.0]]]],"type":"MultiPolygon"},"properties":{"Denumire":null,"_s":{"f":"#00feff","fo":0.3,"s":"#00feff","so":1.0,"w":1.89,"r":5.0}}},{"type":"Feature","geometry":{"coordinates":[[[[26.124645,44.941949,0.0],[26.12522,44.941302,0.0],[26.125461,44.941031,0.0],[26.125237,44.940917,0.0],[26.12552,44.940608,0.0],[26.124209,44.939994,0.0],[26.124299,44.939895,0.0],[26.123894,44.939728,0.0],[26.12384,44.939704,0.0],[26.123733,44.939652,0.0],[26.122337,44.938997,0.0],[26.122158,44.93919,0.0],[26.122093,44.93926,0.0],[26.121783,44.939593,0.0],[26.121727,44.939567,0.0],[26.121474,44.939844,0.0],[26.121093,44.940262,0.0],[26.122813,44.941085,0.0],[26.124645,44.941949,0.0]]]],"type":"MultiPolygon"},"properties":{"Denumire":null,"_s":{"f":"#00feff","fo":0.3,"s":"#00feff","so":1.0,"w":1.89,"r":5.0}}},{"type":"Feature","geometry":{"coordinates":[[[[25.996291,44.880625,0.0],[25.992355,44.882936,0.0],[25.992297,44.88297,0.0],[25.992264,44.883017,0.0],[25.990226,44.885945,0.0],[25.988176,44.888889,0.0],[25.988176,44.888889,0.0],[25.988176,44.888889,0.0],[25.986634,44.891106,0.0],[25.984954,44.893516,0.0],[25.981212,44.894832,0.0],[25.977408,44.896169,0.0],[25.973965,44.896781,0.0],[25.974134,44.897261,0.0],[25.977613,44.896642,0.0],[25.977649,44.896636,0.0],[25.977683,44.896624,0.0],[25.98152,44.895275,0.0],[25.98152,44.895275,0.0],[25.98152,44.895275,0.0],[25.985368,44.893923,0.0],[25.985474,44.893886,0.0],[25.985526,44.893811,0.0],[25.987258,44.891326,0.0],[25.987258,44.891326,0.0],[25.987258,44.891326,0.0],[25.988801,44.889108,0.0],[25.99085,44.886165,0.0],[25.99085,44.886165,0.0],[25.99085,44.886165,0.0],[25.992855,44.883284,0.0],[25.996735,44.881007,0.0],[25.996291,44.880625,0.0]]]],"type":"MultiPolygon"},"properties":{"Denumire":null,"_s":{"f":"#00feff","fo":0.3,"s":"#00feff","so":1.0,"w":1.89,"r":5.0}}},{"type":"Feature","geometry":{"coordinates":[[[[25.947404,44.876015,0.0],[25.947404,44.876015,0.0],[25.94945,44.878302,0.0],[25.949459,44.878313,0.0],[25.94947,44.878322,0.0],[25.951016,44.879724,0.0],[25.951016,44.879724,0.0],[25.951016,44.879724,0.0],[25.953354,44.881842,0.0],[25.955694,44.883963,0.0],[25.958115,44.88616,0.0],[25.958115,44.88616,0.0],[25.958115,44.88616,0.0],[25.960535,44.888356,0.0],[25.960535,44.888356,0.0],[25.960535,44.888356,0.0],[25.962959,44.890555,0.0],[25.965436,44.892802,0.0],[25.965436,44.892802,0.0],[25.965436,44.892802,0.0],[25.96788,44.895018,0.0],[25.967913,44.895048,0.0],[25.967958,44.89507,0.0],[25.970567,44.896334,0.0],[25.97096,44.895925,0.0],[25.968395,44.894682,0.0],[25.965984,44.892496,0.0],[25.963508,44.89025,0.0],[25.963508,44.89025,0.0],[25.963508,44.890249,0.0],[25.961083,44.88805,0.0],[25.958663,44.885855,0.0],[25.956242,44.883657,0.0],[25.956242,44.883657,0.0],[25.956242,44.883657,0.0],[25.953902,44.881536,0.0],[25.953902,44.881536,0.0],[25.953902,44.881536,0.0],[25.951564,44.879418,0.0],[25.950028,44.878027,0.0],[25.947991,44.87575,0.0],[25.945911,44.873422,0.0],[25.945911,44.873422,0.0],[25.945911,44.873422,0.0],[25.943571,44.870815,0.0],[25.941086,44.86804,0.0],[25.939005,44.865701,0.0],[25.939005,44.8657,0.0],[25.939004,44.8657,0.0],[25.936958,44.863412,0.0],[25.93464,44.860818,0.0],[25.93464,44.860818,0.0],[25.93464,44.860818,0.0],[25.932348,44.858252,0.0],[25.932264,44.858157,0.0],[25.932107,44.85814,0.0],[25.927524,44.857643,0.0],[25.927438,44.857634,0.0],[25.927356,44.857654,0.0],[25.925811,44.858042,0.0],[25.924401,44.858395,0.0],[25.924401,44.858395,0.0],[25.924401,44.858395,0.0],[25.920584,44.859352,0.0],[25.916701,44.860324,0.0],[25.916701,44.860324,0.0],[25.916701,44.860324,0.0],[25.912819,44.861298,0.0],[25.90893,44.862271,0.0],[25.908929,44.862271,0.0],[25.908929,44.862271,0.0],[25.905455,44.863141,0.0],[25.901642,44.864096,0.0],[25.901642,44.864096,0.0],[25.901642,44.864096,0.0],[25.897837,44.86505,0.0],[25.89399,44.866014,0.0],[25.890131,44.86698,0.0],[25.890131,44.86698,0.0],[25.890131,44.86698,0.0],[25.887658,44.867599,0.0],[25.883304,44.868686,0.0],[25.879096,44.869732,0.0],[25.879096,44.869732,0.0],[25.879096,44.869732,0.0],[25.875252,44.870688,0.0],[25.875252,44.870688,0.0],[25.875252,44.870688,0.0],[25.871421,44.871641,0.0],[25.871421,44.871641,0.0],[25.871421,44.871641,0.0],[25.867566,44.872601,0.0],[25.863754,44.873548,0.0],[25.863754,44.873548,0.0],[25.863754,44.873548,0.0],[25.85967,44.874565,0.0],[25.855384,44.875632,0.0],[25.851223,44.876665,0.0],[25.851223,44.876665,0.0],[25.851223,44.876665,0.0],[25.847275,44.877649,0.0],[25.843313,44.878636,0.0],[25.839421,44.878107,0.0],[25.839421,44.878107,0.0],[25.839421,44.878107,0.0],[25.835147,44.877528,0.0],[25.830815,44.876939,0.0],[25.830815,44.876939,0.0],[25.830815,44.876939,0.0],[25.827583,44.8765,0.0],[25.823093,44.875889,0.0],[25.823093,44.875889,0.0],[25.823093,44.875889,0.0],[25.818891,44.875318,0.0],[25.815655,44.874875,0.0],[25.81174,44.874177,0.0],[25.81174,44.874177,0.0],[25.81174,44.874177,0.0],[25.807799,44.873474,0.0],[25.803853,44.872769,0.0],[25.799837,44.87205,0.0],[25.799837,44.87205,0.0],[25.799836,44.87205,0.0],[25.795982,44.871361,0.0],[25.795982,44.871361,0.0],[25.795981,44.871361,0.0],[25.791928,44.870638,0.0],[25.787656,44.869874,0.0],[25.787656,44.869874,0.0],[25.787656,44.869874,0.0],[25.785527,44.869494,0.0],[25.785246,44.869954,0.0],[25.787487,44.870354,0.0],[25.791759,44.871118,0.0],[25.791759,44.871118,0.0],[25.791759,44.871118,0.0],[25.795812,44.871841,0.0],[25.799667,44.87253,0.0],[25.803683,44.873249,0.0],[25.803683,44.873249,0.0],[25.803683,44.873249,0.0],[25.807629,44.873954,0.0],[25.807629,44.873954,0.0],[25.807629,44.873954,0.0],[25.811571,44.874657,0.0],[25.815495,44.875357,0.0],[25.815505,44.875359,0.0],[25.815514,44.87536,0.0],[25.818759,44.875804,0.0],[25.818759,44.875804,0.0],[25.81876,44.875804,0.0],[25.822962,44.876376,0.0],[25.827452,44.876986,0.0],[25.827452,44.876986,0.0],[25.827452,44.876986,0.0],[25.830684,44.877426,0.0],[25.835016,44.878014,0.0],[25.835016,44.878014,0.0],[25.835017,44.878014,0.0],[25.83929,44.878593,0.0],[25.843274,44.879135,0.0],[25.843366,44.879147,0.0],[25.843454,44.879125,0.0],[25.847505,44.878116,0.0],[25.847505,44.878116,0.0],[25.847505,44.878116,0.0],[25.851453,44.877133,0.0],[25.855614,44.876099,0.0],[25.855614,44.876099,0.0],[25.855614,44.876099,0.0],[25.8599,44.875033,0.0],[25.8599,44.875033,0.0],[25.8599,44.875033,0.0],[25.863984,44.874015,0.0],[25.867796,44.873068,0.0],[25.867796,44.873068,0.0],[25.867796,44.873068,0.0],[25.871651,44.872109,0.0],[25.875482,44.871156,0.0],[25.879326,44.8702,0.0],[25.883534,44.869153,0.0],[25.883534,44.869153,0.0],[25.883534,44.869153,0.0],[25.887888,44.868066,0.0],[25.887888,44.868066,0.0],[25.887889,44.868066,0.0],[25.890363,44.867447,0.0],[25.894221,44.866481,0.0],[25.894221,44.866481,0.0],[25.894221,44.866481,0.0],[25.898069,44.865517,0.0],[25.898069,44.865517,0.0],[25.898069,44.865517,0.0],[25.901873,44.864563,0.0],[25.905687,44.863608,0.0],[25.905687,44.863608,0.0],[25.905687,44.863608,0.0],[25.909161,44.862738,0.0],[25.913051,44.861764,0.0],[25.913051,44.861764,0.0],[25.913051,44.861764,0.0],[25.916932,44.860791,0.0],[25.920815,44.859818,0.0],[25.920815,44.859818,0.0],[25.920815,44.859818,0.0],[25.924632,44.858862,0.0],[25.926042,44.858509,0.0],[25.926042,44.858509,0.0],[25.926042,44.858509,0.0],[25.927506,44.858142,0.0],[25.931846,44.858613,0.0],[25.934053,44.861083,0.0],[25.936371,44.863678,0.0],[25.936371,44.863678,0.0],[25.936371,44.863678,0.0],[25.938417,44.865965,0.0],[25.940498,44.868305,0.0],[25.940498,44.868305,0.0],[25.940498,44.868306,0.0],[25.942984,44.871081,0.0],[25.942984,44.871081,0.0],[25.942984,44.871081,0.0],[25.945324,44.873688,0.0],[25.947404,44.876015,0.0],[25.947404,44.876015,0.0]]]],"type":"MultiPolygon"},"properties":{"Denumire":null,"_s":{"f":"#00feff","fo":0.3,"s":"#00feff","so":1.0,"w":1.89,"r":5.0}}},{"type":"Feature","geometry":{"coordinates":[[[[26.138206,44.9424,0.0],[26.138206,44.9424,0.0],[26.138206,44.9424,0.0],[26.14123,44.942146,0.0],[26.141387,44.942133,0.0],[26.141476,44.94204,0.0],[26.144063,44.939348,0.0],[26.144064,44.939348,0.0],[26.144064,44.939347,0.0],[26.146687,44.936588,0.0],[26.146737,44.936536,0.0],[26.146745,44.936473,0.0],[26.147215,44.932899,0.0],[26.147215,44.932899,0.0],[26.147215,44.932899,0.0],[26.14764,44.929587,0.0],[26.150558,44.928008,0.0],[26.150558,44.928008,0.0],[26.150558,44.928008,0.0],[26.153545,44.926389,0.0],[26.15713,44.925732,0.0],[26.15713,44.925732,0.0],[26.157131,44.925732,0.0],[26.161636,44.924894,0.0],[26.161723,44.924878,0.0],[26.161788,44.924834,0.0],[26.165301,44.922464,0.0],[26.165302,44.922464,0.0],[26.165303,44.922464,0.0],[26.167221,44.921158,0.0],[26.170439,44.918976,0.0],[26.170439,44.918976,0.0],[26.170439,44.918976,0.0],[26.173543,44.916864,0.0],[26.173543,44.916864,0.0],[26.173543,44.916864,0.0],[26.176746,44.914684,0.0],[26.179696,44.913,0.0],[26.179696,44.913,0.0],[26.179696,44.912999,0.0],[26.18265,44.911309,0.0],[26.182651,44.911309,0.0],[26.182651,44.911309,0.0],[26.185673,44.909569,0.0],[26.185752,44.909524,0.0],[26.185784,44.909457,0.0],[26.187119,44.906664,0.0],[26.187171,44.906554,0.0],[26.187087,44.906456,0.0],[26.186484,44.905753,0.0],[26.186431,44.905691,0.0],[26.186338,44.905659,0.0],[26.184764,44.90512,0.0],[26.184764,44.90512,0.0],[26.184763,44.90512,0.0],[26.180361,44.90362,0.0],[26.180361,44.90362,0.0],[26.180361,44.90362,0.0],[26.17625,44.902222,0.0],[26.172631,44.900989,0.0],[26.17145,44.898032,0.0],[26.17145,44.898032,0.0],[26.17145,44.898032,0.0],[26.170238,44.894998,0.0],[26.168889,44.891622,0.0],[26.168841,44.891501,0.0],[26.168675,44.891457,0.0],[26.16417,44.890274,0.0],[26.158915,44.888884,0.0],[26.158914,44.888884,0.0],[26.158914,44.888884,0.0],[26.154921,44.88783,0.0],[26.149797,44.886478,0.0],[26.14732,44.883987,0.0],[26.147279,44.883946,0.0],[26.14722,44.88392,0.0],[26.143529,44.882275,0.0],[26.140854,44.881083,0.0],[26.138171,44.879884,0.0],[26.138171,44.879884,0.0],[26.138171,44.879884,0.0],[26.135437,44.878664,0.0],[26.132703,44.877444,0.0],[26.132703,44.877444,0.0],[26.132703,44.877444,0.0],[26.130205,44.87633,0.0],[26.128637,44.874036,0.0],[26.128637,44.874036,0.0],[26.128637,44.874036,0.0],[26.127397,44.872224,0.0],[26.125808,44.869882,0.0],[26.123809,44.866914,0.0],[26.121809,44.86392,0.0],[26.121809,44.86392,0.0],[26.121809,44.86392,0.0],[26.119796,44.860908,0.0],[26.118448,44.858891,0.0],[26.116395,44.855807,0.0],[26.116367,44.855765,0.0],[26.116321,44.855734,0.0],[26.112782,44.853337,0.0],[26.108859,44.850675,0.0],[26.104938,44.848011,0.0],[26.104938,44.848011,0.0],[26.104937,44.848011,0.0],[26.101203,44.845476,0.0],[26.099289,44.844176,0.0],[26.099165,44.844092,0.0],[26.098996,44.844111,0.0],[26.0947,44.844582,0.0],[26.0947,44.844582,0.0],[26.0947,44.844582,0.0],[26.091583,44.844924,0.0],[26.087319,44.845375,0.0],[26.087273,44.84538,0.0],[26.087231,44.845393,0.0],[26.082707,44.846797,0.0],[26.079434,44.847798,0.0],[26.078077,44.847681,0.0],[26.077972,44.847672,0.0],[26.077877,44.847707,0.0],[26.076025,44.848381,0.0],[26.07249,44.849574,0.0],[26.068604,44.850884,0.0],[26.068604,44.850884,0.0],[26.068604,44.850884,0.0],[26.064922,44.852125,0.0],[26.064922,44.852125,0.0],[26.064922,44.852125,0.0],[26.061077,44.853423,0.0],[26.05727,44.854706,0.0],[26.053653,44.855924,0.0],[26.053653,44.855924,0.0],[26.053653,44.855924,0.0],[26.049857,44.857204,0.0],[26.045529,44.857098,0.0],[26.045529,44.857098,0.0],[26.045529,44.857098,0.0],[26.041229,44.856994,0.0],[26.037785,44.85691,0.0],[26.037785,44.85691,0.0],[26.037785,44.85691,0.0],[26.032156,44.856775,0.0],[26.032152,44.856775,0.0],[26.032148,44.856775,0.0],[26.027683,44.856744,0.0],[26.027672,44.856743,0.0],[26.027661,44.856744,0.0],[26.021963,44.856961,0.0],[26.018343,44.856803,0.0],[26.018343,44.856803,0.0],[26.018343,44.856803,0.0],[26.012717,44.856557,0.0],[26.012717,44.856557,0.0],[26.012717,44.856557,0.0],[26.007975,44.85635,0.0],[26.004025,44.854569,0.0],[26.004025,44.854569,0.0],[26.004025,44.854569,0.0],[26.000542,44.852999,0.0],[25.997356,44.851562,0.0],[25.997222,44.851502,0.0],[25.99707,44.851534,0.0],[25.993152,44.852362,0.0],[25.993152,44.852362,0.0],[25.993151,44.852362,0.0],[25.989012,44.853247,0.0],[25.984395,44.852854,0.0],[25.984394,44.852853,0.0],[25.984394,44.852853,0.0],[25.979497,44.852447,0.0],[25.974359,44.85202,0.0],[25.969344,44.851603,0.0],[25.969235,44.851594,0.0],[25.969137,44.851631,0.0],[25.965493,44.853044,0.0],[25.965493,44.853044,0.0],[25.965493,44.853045,0.0],[25.961472,44.854604,0.0],[25.957478,44.856153,0.0],[25.952954,44.857907,0.0],[25.952954,44.857907,0.0],[25.952954,44.857907,0.0],[25.947942,44.85985,0.0],[25.946052,44.860582,0.0],[25.946052,44.860582,0.0],[25.946052,44.860582,0.0],[25.941441,44.862368,0.0],[25.941321,44.862415,0.0],[25.941278,44.862507,0.0],[25.939549,44.866159,0.0],[25.939496,44.866271,0.0],[25.939585,44.866371,0.0],[25.941249,44.868235,0.0],[25.94355,44.870814,0.0],[25.945885,44.873432,0.0],[25.947959,44.875757,0.0],[25.949975,44.878033,0.0],[25.949985,44.878044,0.0],[25.949996,44.878054,0.0],[25.951555,44.879457,0.0],[25.953884,44.881575,0.0],[25.956204,44.883686,0.0],[25.956204,44.883686,0.0],[25.956204,44.883686,0.0],[25.958621,44.885883,0.0],[25.958621,44.885883,0.0],[25.958621,44.885883,0.0],[25.961029,44.888072,0.0],[25.963454,44.890277,0.0],[25.965929,44.892527,0.0],[25.968291,44.894674,0.0],[25.968318,44.894699,0.0],[25.968353,44.894718,0.0],[25.970768,44.896043,0.0],[25.971194,44.895651,0.0],[25.968813,44.894345,0.0],[25.966477,44.892222,0.0],[25.966477,44.892222,0.0],[25.966477,44.892222,0.0],[25.964003,44.889972,0.0],[25.964003,44.889972,0.0],[25.964003,44.889972,0.0],[25.961577,44.887767,0.0],[25.961577,44.887767,0.0],[25.961577,44.887767,0.0],[25.95917,44.885578,0.0],[25.956753,44.883381,0.0],[25.954432,44.88127,0.0],[25.954432,44.88127,0.0],[25.954432,44.88127,0.0],[25.952103,44.879151,0.0],[25.952102,44.879151,0.0],[25.952102,44.87915,0.0],[25.950554,44.877758,0.0],[25.948547,44.875493,0.0],[25.948547,44.875492,0.0],[25.948547,44.875492,0.0],[25.946473,44.873167,0.0],[25.946473,44.873167,0.0],[25.946473,44.873167,0.0],[25.944137,44.870549,0.0],[25.944137,44.870549,0.0],[25.944137,44.870549,0.0],[25.941837,44.86797,0.0],[25.941837,44.86797,0.0],[25.941837,44.86797,0.0],[25.940261,44.866205,0.0],[25.941894,44.862757,0.0],[25.946385,44.861016,0.0],[25.948274,44.860284,0.0],[25.948274,44.860284,0.0],[25.948275,44.860284,0.0],[25.953287,44.858341,0.0],[25.957811,44.856588,0.0],[25.957811,44.856588,0.0],[25.957811,44.856588,0.0],[25.961805,44.855039,0.0],[25.961805,44.855039,0.0],[25.961805,44.855039,0.0],[25.965827,44.853479,0.0],[25.969373,44.852104,0.0],[25.974278,44.852512,0.0],[25.974278,44.852512,0.0],[25.974278,44.852512,0.0],[25.979417,44.852939,0.0],[25.979417,44.852939,0.0],[25.979417,44.852939,0.0],[25.984312,44.853345,0.0],[25.989001,44.853744,0.0],[25.989073,44.85375,0.0],[25.989142,44.853735,0.0],[25.993351,44.852836,0.0],[25.997117,44.85204,0.0],[26.000169,44.853417,0.0],[26.000169,44.853417,0.0],[26.000169,44.853417,0.0],[26.003653,44.854987,0.0],[26.007678,44.856802,0.0],[26.007753,44.856836,0.0],[26.007843,44.85684,0.0],[26.012674,44.857051,0.0],[26.018301,44.857297,0.0],[26.02194,44.857456,0.0],[26.02196,44.857457,0.0],[26.02198,44.857456,0.0],[26.027687,44.857239,0.0],[26.032137,44.85727,0.0],[26.037761,44.857405,0.0],[26.041205,44.857488,0.0],[26.041205,44.857488,0.0],[26.041205,44.857488,0.0],[26.045506,44.857592,0.0],[26.049917,44.857701,0.0],[26.050002,44.857703,0.0],[26.050078,44.857677,0.0],[26.053951,44.856372,0.0],[26.057568,44.855153,0.0],[26.057568,44.855153,0.0],[26.057568,44.855153,0.0],[26.061375,44.85387,0.0],[26.061375,44.85387,0.0],[26.061375,44.85387,0.0],[26.065221,44.852573,0.0],[26.068902,44.851331,0.0],[26.072788,44.850021,0.0],[26.072788,44.850021,0.0],[26.072788,44.850021,0.0],[26.076328,44.848827,0.0],[26.076332,44.848825,0.0],[26.076337,44.848824,0.0],[26.078099,44.848182,0.0],[26.079444,44.848297,0.0],[26.079537,44.848305,0.0],[26.079623,44.848279,0.0],[26.082983,44.847251,0.0],[26.082984,44.847251,0.0],[26.082985,44.847251,0.0],[26.087466,44.84586,0.0],[26.091686,44.845414,0.0],[26.091687,44.845414,0.0],[26.091688,44.845414,0.0],[26.094806,44.845071,0.0],[26.098932,44.844618,0.0],[26.100723,44.845834,0.0],[26.100723,44.845834,0.0],[26.100723,44.845834,0.0],[26.104457,44.848369,0.0],[26.108379,44.851033,0.0],[26.108379,44.851033,0.0],[26.108379,44.851033,0.0],[26.112302,44.853695,0.0],[26.112302,44.853695,0.0],[26.112302,44.853695,0.0],[26.115794,44.85606,0.0],[26.117819,44.859103,0.0],[26.117819,44.859103,0.0],[26.11782,44.859103,0.0],[26.119167,44.86112,0.0],[26.119167,44.86112,0.0],[26.119167,44.86112,0.0],[26.12118,44.864133,0.0],[26.12318,44.867127,0.0],[26.123181,44.867127,0.0],[26.123181,44.867128,0.0],[26.125181,44.870096,0.0],[26.125181,44.870096,0.0],[26.125181,44.870097,0.0],[26.12677,44.872439,0.0],[26.126771,44.872439,0.0],[26.126771,44.87244,0.0],[26.128011,44.874252,0.0],[26.129622,44.87661,0.0],[26.129666,44.876673,0.0],[26.12975,44.876711,0.0],[26.132333,44.877863,0.0],[26.135067,44.879083,0.0],[26.135067,44.879083,0.0],[26.135067,44.879083,0.0],[26.137801,44.880303,0.0],[26.140484,44.881502,0.0],[26.140484,44.881502,0.0],[26.140484,44.881502,0.0],[26.143159,44.882694,0.0],[26.143159,44.882694,0.0],[26.143159,44.882694,0.0],[26.146791,44.884313,0.0],[26.149291,44.886826,0.0],[26.149353,44.886889,0.0],[26.149454,44.886915,0.0],[26.154678,44.888294,0.0],[26.154678,44.888294,0.0],[26.154678,44.888294,0.0],[26.158672,44.889348,0.0],[26.163928,44.890738,0.0],[26.163928,44.890738,0.0],[26.163928,44.890738,0.0],[26.168268,44.891878,0.0],[26.169568,44.895133,0.0],[26.169568,44.895133,0.0],[26.169568,44.895133,0.0],[26.170781,44.898167,0.0],[26.172004,44.901231,0.0],[26.172047,44.901338,0.0],[26.172188,44.901387,0.0],[26.175949,44.902668,0.0],[26.175949,44.902669,0.0],[26.175949,44.902669,0.0],[26.180061,44.904067,0.0],[26.184462,44.905566,0.0],[26.185943,44.906073,0.0],[26.186407,44.906614,0.0],[26.185157,44.90923,0.0],[26.182213,44.910924,0.0],[26.179259,44.912614,0.0],[26.176298,44.914305,0.0],[26.176286,44.914312,0.0],[26.176275,44.914319,0.0],[26.173061,44.916507,0.0],[26.169958,44.918618,0.0],[26.16674,44.9208,0.0],[26.16674,44.9208,0.0],[26.16674,44.9208,0.0],[26.164821,44.922106,0.0],[26.161373,44.924432,0.0],[26.156955,44.925253,0.0],[26.153303,44.925922,0.0],[26.153235,44.925934,0.0],[26.153178,44.925965,0.0],[26.150135,44.927614,0.0],[26.147095,44.929259,0.0],[26.146973,44.929325,0.0],[26.14696,44.929433,0.0],[26.146521,44.932854,0.0],[26.14606,44.936364,0.0],[26.143487,44.93907,0.0],[26.14099,44.941668,0.0],[26.138125,44.941909,0.0],[26.133549,44.942289,0.0],[26.12912,44.942648,0.0],[26.12522,44.941233,0.0],[26.124903,44.941674,0.0],[26.128896,44.943122,0.0],[26.12899,44.943156,0.0],[26.129094,44.943148,0.0],[26.133628,44.942781,0.0],[26.133629,44.942781,0.0],[26.133629,44.942781,0.0],[26.138206,44.9424,0.0]]]],"type":"MultiPolygon"},"properties":{"Denumire":null,"_s":{"f":"#00feff","fo":0.3,"s":"#00feff","so":1.0,"w":1.89,"r":5.0}}},{"type":"Feature","geometry":{"coordinates":[[[[25.907119,44.812671,0.0],[25.907119,44.812671,0.0],[25.907119,44.812671,0.0],[25.904819,44.81469,0.0],[25.904819,44.81469,0.0],[25.904819,44.81469,0.0],[25.902511,44.816716,0.0],[25.902511,44.816716,0.0],[25.902511,44.816716,0.0],[25.900227,44.818721,0.0],[25.900227,44.818721,0.0],[25.900227,44.818721,0.0],[25.897949,44.82072,0.0],[25.895712,44.822682,0.0],[25.895659,44.822728,0.0],[25.895642,44.822786,0.0],[25.895295,44.823937,0.0],[25.895257,44.82406,0.0],[25.895375,44.824154,0.0],[25.89656,44.825096,0.0],[25.89875,44.826838,0.0],[25.89875,44.826838,0.0],[25.89875,44.826838,0.0],[25.900977,44.828606,0.0],[25.902581,44.82988,0.0],[25.902589,44.829886,0.0],[25.902597,44.829892,0.0],[25.90532,44.831779,0.0],[25.908054,44.833674,0.0],[25.908055,44.833674,0.0],[25.908055,44.833674,0.0],[25.910789,44.835567,0.0],[25.91352,44.837459,0.0],[25.91352,44.837459,0.0],[25.91352,44.837459,0.0],[25.91597,44.839155,0.0],[25.91843,44.840859,0.0],[25.91843,44.840859,0.0],[25.91843,44.840859,0.0],[25.920885,44.842557,0.0],[25.920885,44.842557,0.0],[25.920885,44.842557,0.0],[25.923364,44.844271,0.0],[25.925762,44.84596,0.0],[25.928193,44.847677,0.0],[25.928193,44.847677,0.0],[25.928193,44.847677,0.0],[25.931144,44.849754,0.0],[25.931144,44.849754,0.0],[25.931144,44.849754,0.0],[25.933566,44.851458,0.0],[25.936492,44.85352,0.0],[25.936492,44.853521,0.0],[25.936492,44.853521,0.0],[25.938285,44.854782,0.0],[25.940505,44.856346,0.0],[25.942784,44.857952,0.0],[25.942784,44.857952,0.0],[25.942784,44.857952,0.0],[25.94499,44.859507,0.0],[25.9461,44.860661,0.0],[25.9461,44.860661,0.0],[25.9461,44.860661,0.0],[25.946963,44.861559,0.0],[25.946963,44.861559,0.0],[25.946963,44.861559,0.0],[25.948921,44.863595,0.0],[25.950882,44.865635,0.0],[25.95284,44.867672,0.0],[25.95284,44.867672,0.0],[25.95284,44.867672,0.0],[25.954806,44.869716,0.0],[25.954806,44.869716,0.0],[25.954806,44.869716,0.0],[25.956787,44.871775,0.0],[25.956787,44.871775,0.0],[25.956788,44.871775,0.0],[25.958717,44.873778,0.0],[25.9576,44.876116,0.0],[25.9576,44.876116,0.0],[25.9576,44.876116,0.0],[25.956377,44.878676,0.0],[25.956331,44.878773,0.0],[25.956394,44.878865,0.0],[25.957632,44.880651,0.0],[25.958891,44.882469,0.0],[25.960153,44.884292,0.0],[25.960153,44.884292,0.0],[25.960153,44.884292,0.0],[25.961272,44.885906,0.0],[25.962862,44.8882,0.0],[25.964079,44.889958,0.0],[25.964093,44.889979,0.0],[25.964113,44.889997,0.0],[25.96647,44.89222,0.0],[25.968704,44.894326,0.0],[25.968735,44.894356,0.0],[25.968777,44.894378,0.0],[25.971135,44.895592,0.0],[25.971543,44.895191,0.0],[25.969228,44.893999,0.0],[25.967026,44.891922,0.0],[25.967026,44.891922,0.0],[25.967026,44.891922,0.0],[25.964689,44.889718,0.0],[25.963487,44.887981,0.0],[25.963486,44.887981,0.0],[25.963486,44.887981,0.0],[25.961897,44.885687,0.0],[25.961897,44.885687,0.0],[25.961897,44.885687,0.0],[25.960778,44.884074,0.0],[25.959516,44.882251,0.0],[25.959516,44.882251,0.0],[25.959516,44.882251,0.0],[25.958257,44.880433,0.0],[25.958257,44.880433,0.0],[25.958257,44.880433,0.0],[25.957083,44.878738,0.0],[25.958259,44.876275,0.0],[25.959432,44.87382,0.0],[25.959488,44.873702,0.0],[25.95939,44.8736,0.0],[25.957362,44.871496,0.0],[25.955381,44.869437,0.0],[25.953414,44.867392,0.0],[25.951456,44.865355,0.0],[25.951456,44.865355,0.0],[25.951456,44.865355,0.0],[25.949495,44.863315,0.0],[25.949495,44.863315,0.0],[25.949495,44.863315,0.0],[25.947538,44.86128,0.0],[25.946674,44.860382,0.0],[25.945546,44.859208,0.0],[25.945528,44.859189,0.0],[25.945504,44.859172,0.0],[25.943274,44.857601,0.0],[25.940995,44.855995,0.0],[25.940995,44.855995,0.0],[25.940995,44.855995,0.0],[25.938775,44.854431,0.0],[25.938775,44.854431,0.0],[25.938775,44.854431,0.0],[25.936982,44.853169,0.0],[25.934056,44.851107,0.0],[25.934056,44.851106,0.0],[25.934056,44.851106,0.0],[25.931633,44.849402,0.0],[25.928683,44.847325,0.0],[25.926252,44.845608,0.0],[25.926251,44.845608,0.0],[25.926251,44.845608,0.0],[25.923852,44.843919,0.0],[25.923851,44.843918,0.0],[25.92385,44.843917,0.0],[25.92137,44.842202,0.0],[25.918915,44.840504,0.0],[25.916455,44.8388,0.0],[25.916455,44.8388,0.0],[25.916455,44.8388,0.0],[25.914005,44.837104,0.0],[25.911275,44.835212,0.0],[25.911275,44.835212,0.0],[25.911275,44.835212,0.0],[25.90854,44.833319,0.0],[25.905805,44.831424,0.0],[25.905805,44.831424,0.0],[25.905805,44.831424,0.0],[25.903091,44.829543,0.0],[25.901495,44.828275,0.0],[25.901495,44.828275,0.0],[25.901495,44.828275,0.0],[25.899268,44.826508,0.0],[25.897078,44.824766,0.0],[25.897078,44.824766,0.0],[25.897078,44.824766,0.0],[25.896012,44.823918,0.0],[25.896304,44.822948,0.0],[25.898489,44.821032,0.0],[25.898489,44.821032,0.0],[25.898489,44.821032,0.0],[25.900767,44.819033,0.0],[25.903051,44.817027,0.0],[25.905359,44.815002,0.0],[25.907659,44.812983,0.0],[25.909943,44.810979,0.0],[25.909947,44.810976,0.0],[25.909951,44.810973,0.0],[25.911846,44.809191,0.0],[25.911846,44.80919,0.0],[25.911846,44.80919,0.0],[25.913981,44.80718,0.0],[25.916117,44.805169,0.0],[25.918059,44.803342,0.0],[25.918059,44.803341,0.0],[25.918059,44.803341,0.0],[25.920014,44.801499,0.0],[25.921951,44.799675,0.0],[25.92391,44.797831,0.0],[25.92391,44.797831,0.0],[25.92391,44.797831,0.0],[25.926047,44.795816,0.0],[25.928308,44.793686,0.0],[25.930009,44.792085,0.0],[25.930009,44.792084,0.0],[25.930009,44.792084,0.0],[25.93229,44.789934,0.0],[25.934545,44.787809,0.0],[25.936805,44.78568,0.0],[25.936806,44.785679,0.0],[25.936806,44.785679,0.0],[25.939067,44.783547,0.0],[25.94133,44.781414,0.0],[25.943377,44.779486,0.0],[25.945613,44.777381,0.0],[25.945613,44.777381,0.0],[25.945613,44.777381,0.0],[25.947832,44.77529,0.0],[25.950046,44.773207,0.0],[25.950046,44.773207,0.0],[25.950046,44.773207,0.0],[25.952267,44.771114,0.0],[25.954494,44.769018,0.0],[25.954494,44.769018,0.0],[25.954494,44.769017,0.0],[25.956734,44.766907,0.0],[25.958955,44.764814,0.0],[25.961186,44.762714,0.0],[25.961186,44.762714,0.0],[25.961186,44.762714,0.0],[25.963382,44.760646,0.0],[25.963382,44.760646,0.0],[25.963382,44.760645,0.0],[25.965571,44.758581,0.0],[25.967705,44.756569,0.0],[25.967706,44.756569,0.0],[25.967706,44.756569,0.0],[25.969836,44.754558,0.0],[25.969905,44.754492,0.0],[25.969906,44.75441,0.0],[25.969921,44.751985,0.0],[25.969921,44.751934,0.0],[25.969893,44.751887,0.0],[25.968803,44.750058,0.0],[25.967418,44.747732,0.0],[25.96589,44.74516,0.0],[25.967363,44.74239,0.0],[25.967395,44.742328,0.0],[25.967381,44.742263,0.0],[25.966689,44.73918,0.0],[25.966689,44.73918,0.0],[25.966689,44.73918,0.0],[25.965902,44.73569,0.0],[25.966284,44.733752,0.0],[25.966284,44.733752,0.0],[25.966284,44.733752,0.0],[25.966727,44.731495,0.0],[25.967234,44.728921,0.0],[25.967234,44.728921,0.0],[25.967234,44.728921,0.0],[25.967735,44.726367,0.0],[25.968235,44.723829,0.0],[25.968238,44.723812,0.0],[25.968238,44.723795,0.0],[25.96824,44.721269,0.0],[25.96824,44.721269,0.0],[25.96824,44.721269,0.0],[25.968241,44.718788,0.0],[25.968246,44.716292,0.0],[25.968246,44.716292,0.0],[25.968246,44.716292,0.0],[25.967551,44.716291,0.0],[25.967547,44.718787,0.0],[25.967547,44.718787,0.0],[25.967547,44.718787,0.0],[25.967546,44.721268,0.0],[25.967544,44.723778,0.0],[25.967047,44.726298,0.0],[25.967047,44.726298,0.0],[25.967047,44.726298,0.0],[25.966546,44.728853,0.0],[25.96604,44.731426,0.0],[25.96604,44.731426,0.0],[25.96604,44.731426,0.0],[25.965596,44.733683,0.0],[25.965207,44.735658,0.0],[25.9652,44.735695,0.0],[25.965208,44.735732,0.0],[25.966003,44.739258,0.0],[25.96668,44.742276,0.0],[25.965191,44.745077,0.0],[25.965142,44.74517,0.0],[25.965196,44.745261,0.0],[25.966778,44.747925,0.0],[25.966778,44.747925,0.0],[25.966779,44.747925,0.0],[25.968164,44.750251,0.0],[25.968164,44.750251,0.0],[25.968164,44.750251,0.0],[25.969226,44.752033,0.0],[25.969211,44.754326,0.0],[25.967151,44.756271,0.0],[25.965017,44.758282,0.0],[25.965017,44.758282,0.0],[25.965017,44.758282,0.0],[25.962828,44.760347,0.0],[25.960632,44.762416,0.0],[25.958401,44.764516,0.0],[25.958401,44.764516,0.0],[25.958401,44.764516,0.0],[25.95618,44.766609,0.0],[25.95618,44.766609,0.0],[25.95618,44.766609,0.0],[25.95394,44.768719,0.0],[25.951713,44.770816,0.0],[25.951713,44.770816,0.0],[25.951713,44.770816,0.0],[25.949492,44.772908,0.0],[25.947277,44.774991,0.0],[25.947277,44.774991,0.0],[25.947277,44.774991,0.0],[25.945059,44.777083,0.0],[25.942823,44.779187,0.0],[25.942823,44.779187,0.0],[25.942823,44.779187,0.0],[25.940776,44.781115,0.0],[25.940776,44.781115,0.0],[25.940776,44.781115,0.0],[25.938513,44.783249,0.0],[25.938513,44.783249,0.0],[25.938513,44.783249,0.0],[25.936251,44.785381,0.0],[25.933991,44.787511,0.0],[25.933991,44.787511,0.0],[25.933991,44.787511,0.0],[25.931736,44.789635,0.0],[25.931736,44.789635,0.0],[25.931736,44.789635,0.0],[25.929454,44.791786,0.0],[25.927754,44.793387,0.0],[25.927754,44.793387,0.0],[25.927754,44.793387,0.0],[25.925493,44.795517,0.0],[25.925493,44.795517,0.0],[25.925493,44.795517,0.0],[25.923355,44.797532,0.0],[25.921396,44.799377,0.0],[25.921396,44.799377,0.0],[25.921396,44.799377,0.0],[25.919459,44.8012,0.0],[25.919459,44.8012,0.0],[25.919459,44.8012,0.0],[25.917504,44.803043,0.0],[25.915563,44.804871,0.0],[25.915563,44.804871,0.0],[25.915563,44.804871,0.0],[25.913427,44.806881,0.0],[25.913427,44.806881,0.0],[25.913427,44.806881,0.0],[25.911291,44.808892,0.0],[25.9094,44.810671,0.0],[25.907119,44.812671,0.0]]]],"type":"MultiPolygon"},"properties":{"Denumire":null,"_s":{"f":"#00feff","fo":0.3,"s":"#00feff","so":1.0,"w":1.89,"r":5.0}}},{"type":"Feature","geometry":{"coordinates":[[[[25.931008,44.859704,0.0],[25.933296,44.862284,0.0],[25.935839,44.865156,0.0],[25.93849,44.868151,0.0],[25.940951,44.87093,0.0],[25.943549,44.873862,0.0],[25.946022,44.876661,0.0],[25.948555,44.879525,0.0],[25.94857,44.879542,0.0],[25.951542,44.882166,0.0],[25.951542,44.882166,0.0],[25.951542,44.882166,0.0],[25.954472,44.884751,0.0],[25.957356,44.887295,0.0],[25.9605,44.890069,0.0],[25.963513,44.892726,0.0],[25.966532,44.895386,0.0],[25.966564,44.895414,0.0],[25.970149,44.897486,0.0],[25.970748,44.896963,0.0],[25.96724,44.894935,0.0],[25.964252,44.892302,0.0],[25.96124,44.889646,0.0],[25.958095,44.886871,0.0],[25.955211,44.884328,0.0],[25.952282,44.881742,0.0],[25.949344,44.879149,0.0],[25.946825,44.876302,0.0],[25.944352,44.873503,0.0],[25.944352,44.873503,0.0],[25.944352,44.873502,0.0],[25.941754,44.870571,0.0],[25.939294,44.867791,0.0],[25.936642,44.864796,0.0],[25.936642,44.864796,0.0],[25.936642,44.864796,0.0],[25.934099,44.861924,0.0],[25.931707,44.859228,0.0],[25.931604,44.859112,0.0],[25.931417,44.85908,0.0],[25.927651,44.858435,0.0],[25.927258,44.858368,0.0],[25.927102,44.858633,0.0],[25.926555,44.859564,0.0],[25.923686,44.86175,0.0],[25.920644,44.864066,0.0],[25.920644,44.864066,0.0],[25.920644,44.864066,0.0],[25.917482,44.866474,0.0],[25.914938,44.868411,0.0],[25.914938,44.868411,0.0],[25.914938,44.868411,0.0],[25.911901,44.870725,0.0],[25.911901,44.870725,0.0],[25.911901,44.870725,0.0],[25.908866,44.873037,0.0],[25.90583,44.875349,0.0],[25.90583,44.875349,0.0],[25.90583,44.875349,0.0],[25.902615,44.877798,0.0],[25.902615,44.877798,0.0],[25.902615,44.877798,0.0],[25.899765,44.87997,0.0],[25.896755,44.882262,0.0],[25.896755,44.882262,0.0],[25.896755,44.882262,0.0],[25.893749,44.884551,0.0],[25.893749,44.884551,0.0],[25.893749,44.884551,0.0],[25.890845,44.886763,0.0],[25.887826,44.889061,0.0],[25.884885,44.891297,0.0],[25.884884,44.891297,0.0],[25.884884,44.891298,0.0],[25.881827,44.893625,0.0],[25.878827,44.895908,0.0],[25.878827,44.895908,0.0],[25.878826,44.895908,0.0],[25.87578,44.898227,0.0],[25.87276,44.900525,0.0],[25.869725,44.902835,0.0],[25.869725,44.902835,0.0],[25.869725,44.902835,0.0],[25.866679,44.905153,0.0],[25.866679,44.905153,0.0],[25.866679,44.905153,0.0],[25.86364,44.907467,0.0],[25.860599,44.909783,0.0],[25.860599,44.909783,0.0],[25.860599,44.909783,0.0],[25.858349,44.911496,0.0],[25.858349,44.911496,0.0],[25.858349,44.911496,0.0],[25.855218,44.91388,0.0],[25.852178,44.916195,0.0],[25.852178,44.916195,0.0],[25.852178,44.916195,0.0],[25.849538,44.918205,0.0],[25.849384,44.918322,0.0],[25.849415,44.918481,0.0],[25.850059,44.92184,0.0],[25.850059,44.92184,0.0],[25.850059,44.92184,0.0],[25.850709,44.925229,0.0],[25.850709,44.925229,0.0],[25.850709,44.925229,0.0],[25.851095,44.927238,0.0],[25.851095,44.927238,0.0],[25.851095,44.927238,0.0],[25.851687,44.930319,0.0],[25.852288,44.933456,0.0],[25.852288,44.933457,0.0],[25.852288,44.933457,0.0],[25.852889,44.936586,0.0],[25.853491,44.939725,0.0],[25.854069,44.942747,0.0],[25.854069,44.942747,0.0],[25.854069,44.942747,0.0],[25.854673,44.945898,0.0],[25.854673,44.945898,0.0],[25.854673,44.945898,0.0],[25.855279,44.949051,0.0],[25.855867,44.952121,0.0],[25.855867,44.952121,0.0],[25.855867,44.952121,0.0],[25.856449,44.955151,0.0],[25.855033,44.958078,0.0],[25.855033,44.958079,0.0],[25.855033,44.958079,0.0],[25.853577,44.961092,0.0],[25.853577,44.961092,0.0],[25.853577,44.961092,0.0],[25.852109,44.964128,0.0],[25.852109,44.964128,0.0],[25.852109,44.964128,0.0],[25.850657,44.967133,0.0],[25.850657,44.967133,0.0],[25.850657,44.967133,0.0],[25.849182,44.970185,0.0],[25.849182,44.970185,0.0],[25.849182,44.970186,0.0],[25.847594,44.973472,0.0],[25.846149,44.976451,0.0],[25.846149,44.976451,0.0],[25.846149,44.976451,0.0],[25.844704,44.97944,0.0],[25.844704,44.97944,0.0],[25.844704,44.97944,0.0],[25.843321,44.982302,0.0],[25.841873,44.985295,0.0],[25.841873,44.985295,0.0],[25.841873,44.985295,0.0],[25.84043,44.988279,0.0],[25.838985,44.991266,0.0],[25.837541,44.99425,0.0],[25.836096,44.997235,0.0],[25.836096,44.997235,0.0],[25.836096,44.997235,0.0],[25.834638,45.000246,0.0],[25.834638,45.000246,0.0],[25.834638,45.000246,0.0],[25.833191,45.003233,0.0],[25.831735,45.006234,0.0],[25.831735,45.006234,0.0],[25.831735,45.006234,0.0],[25.83022,45.00936,0.0],[25.828822,45.012242,0.0],[25.828822,45.012242,0.0],[25.828822,45.012242,0.0],[25.827496,45.01498,0.0],[25.826018,45.01803,0.0],[25.824967,45.020191,0.0],[25.824934,45.020259,0.0],[25.824943,45.020331,0.0],[25.825294,45.0231,0.0],[25.825294,45.0231,0.0],[25.825294,45.0231,0.0],[25.825729,45.02653,0.0],[25.826013,45.028781,0.0],[25.826013,45.028781,0.0],[25.826013,45.028781,0.0],[25.82641,45.031907,0.0],[25.823956,45.034728,0.0],[25.823956,45.034728,0.0],[25.823956,45.034728,0.0],[25.821789,45.037219,0.0],[25.819527,45.039819,0.0],[25.817326,45.042348,0.0],[25.817326,45.042348,0.0],[25.817326,45.042348,0.0],[25.815122,45.044881,0.0],[25.812684,45.047683,0.0],[25.810439,45.050261,0.0],[25.810439,45.050261,0.0],[25.810439,45.050261,0.0],[25.80817,45.052868,0.0],[25.805831,45.055553,0.0],[25.805831,45.055553,0.0],[25.805831,45.055553,0.0],[25.803492,45.058238,0.0],[25.801473,45.060555,0.0],[25.801473,45.060555,0.0],[25.801473,45.060555,0.0],[25.79957,45.062739,0.0],[25.797407,45.065216,0.0],[25.797407,45.065217,0.0],[25.797406,45.065217,0.0],[25.795094,45.067869,0.0],[25.795094,45.067869,0.0],[25.795094,45.067869,0.0],[25.792795,45.070506,0.0],[25.792795,45.070506,0.0],[25.792795,45.070506,0.0],[25.790398,45.073258,0.0],[25.788363,45.075592,0.0],[25.788363,45.075592,0.0],[25.788363,45.075592,0.0],[25.786815,45.077368,0.0],[25.786815,45.077368,0.0],[25.786815,45.077368,0.0],[25.784581,45.079932,0.0],[25.784581,45.079932,0.0],[25.784581,45.079932,0.0],[25.782346,45.082497,0.0],[25.780468,45.084649,0.0],[25.780468,45.084649,0.0],[25.780468,45.084649,0.0],[25.778594,45.086799,0.0],[25.776688,45.088985,0.0],[25.776603,45.089082,0.0],[25.776619,45.089196,0.0],[25.777077,45.092401,0.0],[25.777077,45.092401,0.0],[25.777077,45.092401,0.0],[25.777578,45.095862,0.0],[25.777953,45.098469,0.0],[25.778317,45.101031,0.0],[25.776629,45.103462,0.0],[25.776629,45.103462,0.0],[25.776629,45.103463,0.0],[25.774555,45.106459,0.0],[25.772645,45.109211,0.0],[25.772645,45.109211,0.0],[25.772645,45.109211,0.0],[25.77119,45.111314,0.0],[25.769629,45.113562,0.0],[25.769629,45.113562,0.0],[25.769629,45.113562,0.0],[25.767655,45.116408,0.0],[25.765863,45.118986,0.0],[25.76411,45.121509,0.0],[25.762844,45.123174,0.0],[25.762816,45.12321,0.0],[25.762802,45.123251,0.0],[25.761587,45.126642,0.0],[25.760107,45.130244,0.0],[25.760083,45.130302,0.0],[25.760089,45.130363,0.0],[25.760371,45.133075,0.0],[25.760577,45.13587,0.0],[25.760577,45.13587,0.0],[25.760577,45.13587,0.0],[25.760776,45.138542,0.0],[25.760786,45.138675,0.0],[25.760922,45.138767,0.0],[25.762462,45.139816,0.0],[25.762714,45.141605,0.0],[25.762723,45.141665,0.0],[25.76276,45.14172,0.0],[25.763568,45.142883,0.0],[25.765627,45.146277,0.0],[25.765685,45.146373,0.0],[25.765808,45.146428,0.0],[25.769615,45.148151,0.0],[25.769615,45.148151,0.0],[25.769615,45.148151,0.0],[25.772473,45.149444,0.0],[25.772473,45.149444,0.0],[25.772473,45.149444,0.0],[25.773704,45.15,0.0],[25.777761,45.151836,0.0],[25.777344,45.15552,0.0],[25.777344,45.15552,0.0],[25.777344,45.15552,0.0],[25.777117,45.157558,0.0],[25.777111,45.157607,0.0],[25.777126,45.157655,0.0],[25.778474,45.162136,0.0],[25.779144,45.16491,0.0],[25.779144,45.16491,0.0],[25.779144,45.16491,0.0],[25.779787,45.167563,0.0],[25.780117,45.168939,0.0],[25.780118,45.168939,0.0],[25.780118,45.168939,0.0],[25.780774,45.171654,0.0],[25.779505,45.17428,0.0],[25.779471,45.174351,0.0],[25.779483,45.174426,0.0],[25.77991,45.17715,0.0],[25.779956,45.179644,0.0],[25.777394,45.182195,0.0],[25.777366,45.182222,0.0],[25.777347,45.182253,0.0],[25.776471,45.183646,0.0],[25.776471,45.183646,0.0],[25.776471,45.183646,0.0],[25.775325,45.185474,0.0],[25.775318,45.185487,0.0],[25.775311,45.1855,0.0],[25.773828,45.188505,0.0],[25.773808,45.188546,0.0],[25.773803,45.188589,0.0],[25.773436,45.1918,0.0],[25.772101,45.193236,0.0],[25.770109,45.19513,0.0],[25.768461,45.196696,0.0],[25.766144,45.198894,0.0],[25.766144,45.198894,0.0],[25.766144,45.198895,0.0],[25.764247,45.200695,0.0],[25.764247,45.200695,0.0],[25.764247,45.200695,0.0],[25.761963,45.202864,0.0],[25.75971,45.205004,0.0],[25.75971,45.205004,0.0],[25.759709,45.205004,0.0],[25.757546,45.20706,0.0],[25.757546,45.20706,0.0],[25.757546,45.20706,0.0],[25.754521,45.209936,0.0],[25.753574,45.210835,0.0],[25.751165,45.213017,0.0],[25.751092,45.213083,0.0],[25.751071,45.213165,0.0],[25.750241,45.216432,0.0],[25.750241,45.216435,0.0],[25.75024,45.216438,0.0],[25.749814,45.218312,0.0],[25.747573,45.22148,0.0],[25.747571,45.221484,0.0],[25.747568,45.221487,0.0],[25.746206,45.223516,0.0],[25.744764,45.225664,0.0],[25.744764,45.225664,0.0],[25.744764,45.225664,0.0],[25.742231,45.229438,0.0],[25.742165,45.229536,0.0],[25.742192,45.229642,0.0],[25.742576,45.231162,0.0],[25.742577,45.231166,0.0],[25.742578,45.231169,0.0],[25.743399,45.234072,0.0],[25.743322,45.235222,0.0],[25.743321,45.235231,0.0],[25.743321,45.235241,0.0],[25.743365,45.239157,0.0],[25.743411,45.244103,0.0],[25.743411,45.244103,0.0],[25.743411,45.244103,0.0],[25.743433,45.246181,0.0],[25.743433,45.246181,0.0],[25.743433,45.246181,0.0],[25.743469,45.249139,0.0],[25.743514,45.253134,0.0],[25.74148,45.257493,0.0],[25.741474,45.257507,0.0],[25.741469,45.25752,0.0],[25.740813,45.259447,0.0],[25.739551,45.262511,0.0],[25.739551,45.262512,0.0],[25.739551,45.262512,0.0],[25.73815,45.26595,0.0],[25.737375,45.267851,0.0],[25.736315,45.270434,0.0],[25.735582,45.272002,0.0],[25.735553,45.272063,0.0],[25.735558,45.272127,0.0],[25.735745,45.274394,0.0],[25.735966,45.28026,0.0],[25.736023,45.281975,0.0],[25.736023,45.281975,0.0],[25.736023,45.281975,0.0],[25.736124,45.284849,0.0],[25.736124,45.284849,0.0],[25.736124,45.284849,0.0],[25.736239,45.287863,0.0],[25.736428,45.293061,0.0],[25.736428,45.293061,0.0],[25.736428,45.293062,0.0],[25.736484,45.294571,0.0],[25.736608,45.29795,0.0],[25.736608,45.29795,0.0],[25.736608,45.29795,0.0],[25.736674,45.2997,0.0],[25.736674,45.2997,0.0],[25.736674,45.2997,0.0],[25.736784,45.302533,0.0],[25.736914,45.306208,0.0],[25.736914,45.306208,0.0],[25.736914,45.306208,0.0],[25.736984,45.308101,0.0],[25.737102,45.311891,0.0],[25.737102,45.311891,0.0],[25.737102,45.311892,0.0],[25.73716,45.313558,0.0],[25.736976,45.315367,0.0],[25.736685,45.317842,0.0],[25.736685,45.317843,0.0],[25.736685,45.317844,0.0],[25.736409,45.320333,0.0],[25.736049,45.323524,0.0],[25.736049,45.323524,0.0],[25.736049,45.323525,0.0],[25.73581,45.325722,0.0],[25.73581,45.325722,0.0],[25.73581,45.325722,0.0],[25.735559,45.328067,0.0],[25.735133,45.330993,0.0],[25.735128,45.331024,0.0],[25.735132,45.331055,0.0],[25.735557,45.334752,0.0],[25.735706,45.336413,0.0],[25.735868,45.338241,0.0],[25.735879,45.338366,0.0],[25.736003,45.338456,0.0],[25.738842,45.340507,0.0],[25.740353,45.343893,0.0],[25.740128,45.34594,0.0],[25.739072,45.347123,0.0],[25.739072,45.347123,0.0],[25.739072,45.347123,0.0],[25.737438,45.348954,0.0],[25.737345,45.349059,0.0],[25.737369,45.349181,0.0],[25.737896,45.351833,0.0],[25.73829,45.354272,0.0],[25.738294,45.354296,0.0],[25.738302,45.354319,0.0],[25.739405,45.357317,0.0],[25.740055,45.359414,0.0],[25.740462,45.362181,0.0],[25.740464,45.362195,0.0],[25.740467,45.362208,0.0],[25.740849,45.363672,0.0],[25.740849,45.363672,0.0],[25.740849,45.363673,0.0],[25.741652,45.366702,0.0],[25.742366,45.369428,0.0],[25.742367,45.369428,0.0],[25.742367,45.369429,0.0],[25.742919,45.3715,0.0],[25.743668,45.37434,0.0],[25.743668,45.37434,0.0],[25.743668,45.37434,0.0],[25.744397,45.377103,0.0],[25.744986,45.37936,0.0],[25.744986,45.379363,0.0],[25.744987,45.379366,0.0],[25.74553,45.381246,0.0],[25.746451,45.384698,0.0],[25.747004,45.386803,0.0],[25.747028,45.386892,0.0],[25.747112,45.386961,0.0],[25.749925,45.389266,0.0],[25.752691,45.391535,0.0],[25.752692,45.391535,0.0],[25.752692,45.391535,0.0],[25.755279,45.393647,0.0],[25.75765,45.395602,0.0],[25.75765,45.395603,0.0],[25.757651,45.395604,0.0],[25.759769,45.397335,0.0],[25.761763,45.398967,0.0],[25.763683,45.400549,0.0],[25.764033,45.402951,0.0],[25.764033,45.402952,0.0],[25.764033,45.402952,0.0],[25.764384,45.405356,0.0],[25.764725,45.407691,0.0],[25.764725,45.407691,0.0],[25.764725,45.407691,0.0],[25.76493,45.409092,0.0],[25.763371,45.411569,0.0],[25.763371,45.411569,0.0],[25.763371,45.411569,0.0],[25.761763,45.414135,0.0],[25.760184,45.416654,0.0],[25.760096,45.416794,0.0],[25.760188,45.416933,0.0],[25.761885,45.4195,0.0],[25.763685,45.42223,0.0],[25.763685,45.42223,0.0],[25.763685,45.42223,0.0],[25.765037,45.424279,0.0],[25.766899,45.427103,0.0],[25.768242,45.429145,0.0],[25.768242,45.429145,0.0],[25.768242,45.429145,0.0],[25.769841,45.431576,0.0],[25.770853,45.433126,0.0],[25.770864,45.433142,0.0],[25.770876,45.433156,0.0],[25.773289,45.436033,0.0],[25.775104,45.438199,0.0],[25.774605,45.440227,0.0],[25.774247,45.441635,0.0],[25.774247,45.441635,0.0],[25.774247,45.441635,0.0],[25.773991,45.442648,0.0],[25.771987,45.443544,0.0],[25.768753,45.444988,0.0],[25.764865,45.444739,0.0],[25.764667,45.444727,0.0],[25.764515,45.444816,0.0],[25.762407,45.44605,0.0],[25.762405,45.446051,0.0],[25.762403,45.446052,0.0],[25.760153,45.447396,0.0],[25.760074,45.447443,0.0],[25.76003,45.447509,0.0],[25.75882,45.449306,0.0],[25.757515,45.451238,0.0],[25.757515,45.451238,0.0],[25.757515,45.451239,0.0],[25.756476,45.452787,0.0],[25.75645,45.452826,0.0],[25.756438,45.452868,0.0],[25.755877,45.454945,0.0],[25.755255,45.457222,0.0],[25.755255,45.457222,0.0],[25.755255,45.457223,0.0],[25.754706,45.45925,0.0],[25.754706,45.45925,0.0],[25.754706,45.45925,0.0],[25.754168,45.461249,0.0],[25.754168,45.461249,0.0],[25.754168,45.461249,0.0],[25.753646,45.463194,0.0],[25.752973,45.465684,0.0],[25.752485,45.467488,0.0],[25.753427,45.467614,0.0],[25.753915,45.46581,0.0],[25.753915,45.46581,0.0],[25.753916,45.46581,0.0],[25.754588,45.46332,0.0],[25.754588,45.463319,0.0],[25.754588,45.463319,0.0],[25.755111,45.461375,0.0],[25.755648,45.459376,0.0],[25.756197,45.457349,0.0],[25.756819,45.455073,0.0],[25.756819,45.455072,0.0],[25.75682,45.455072,0.0],[25.757369,45.453037,0.0],[25.758381,45.451527,0.0],[25.759686,45.449596,0.0],[25.759687,45.449595,0.0],[25.759687,45.449595,0.0],[25.760852,45.447864,0.0],[25.763022,45.446568,0.0],[25.764975,45.445424,0.0],[25.768829,45.44567,0.0],[25.768991,45.445681,0.0],[25.769129,45.445619,0.0],[25.772501,45.444114,0.0],[25.772501,45.444114,0.0],[25.772502,45.444114,0.0],[25.774684,45.443138,0.0],[25.774861,45.443058,0.0],[25.774898,45.442912,0.0],[25.775191,45.441754,0.0],[25.775549,45.440345,0.0],[25.77555,45.440344,0.0],[25.77555,45.440343,0.0],[25.776079,45.438191,0.0],[25.776109,45.438069,0.0],[25.776019,45.437962,0.0],[25.774115,45.43569,0.0],[25.774115,45.43569,0.0],[25.774115,45.43569,0.0],[25.771714,45.432828,0.0],[25.770711,45.431294,0.0],[25.770711,45.431294,0.0],[25.770711,45.431293,0.0],[25.769112,45.428861,0.0],[25.767769,45.42682,0.0],[25.767769,45.42682,0.0],[25.767769,45.426819,0.0],[25.765907,45.423995,0.0],[25.765907,45.423995,0.0],[25.765907,45.423995,0.0],[25.764554,45.421945,0.0],[25.762754,45.419215,0.0],[25.762754,45.419215,0.0],[25.762754,45.419215,0.0],[25.761148,45.416787,0.0],[25.76264,45.414408,0.0],[25.76264,45.414408,0.0],[25.76264,45.414408,0.0],[25.764248,45.411842,0.0],[25.765858,45.409283,0.0],[25.76591,45.409201,0.0],[25.765897,45.409112,0.0],[25.765678,45.407622,0.0],[25.765338,45.405286,0.0],[25.765338,45.405286,0.0],[25.765338,45.405286,0.0],[25.764986,45.402883,0.0],[25.764621,45.400375,0.0],[25.764606,45.40027,0.0],[25.764509,45.40019,0.0],[25.76249,45.398528,0.0],[25.76249,45.398527,0.0],[25.762489,45.398527,0.0],[25.760495,45.396895,0.0],[25.760495,45.396895,0.0],[25.760495,45.396895,0.0],[25.758377,45.395164,0.0],[25.756007,45.393208,0.0],[25.756006,45.393207,0.0],[25.756005,45.393206,0.0],[25.753418,45.391095,0.0],[25.750651,45.388826,0.0],[25.750651,45.388826,0.0],[25.750651,45.388826,0.0],[25.747923,45.38659,0.0],[25.747393,45.384575,0.0],[25.747393,45.384575,0.0],[25.747393,45.384574,0.0],[25.74647,45.381119,0.0],[25.74647,45.381117,0.0],[25.746469,45.381114,0.0],[25.745927,45.379235,0.0],[25.745339,45.376981,0.0],[25.745339,45.37698,0.0],[25.745339,45.37698,0.0],[25.744609,45.374217,0.0],[25.74386,45.371377,0.0],[25.74386,45.371376,0.0],[25.74386,45.371376,0.0],[25.743308,45.369305,0.0],[25.742594,45.366579,0.0],[25.742593,45.366579,0.0],[25.742593,45.366578,0.0],[25.74179,45.363549,0.0],[25.741412,45.362099,0.0],[25.741005,45.359325,0.0],[25.741002,45.359307,0.0],[25.740996,45.359288,0.0],[25.740338,45.357166,0.0],[25.740336,45.35716,0.0],[25.740334,45.357154,0.0],[25.739238,45.354172,0.0],[25.738847,45.351753,0.0],[25.738846,45.351748,0.0],[25.738845,45.351744,0.0],[25.738341,45.349209,0.0],[25.739882,45.347483,0.0],[25.741001,45.346229,0.0],[25.741064,45.346159,0.0],[25.741073,45.346076,0.0],[25.741314,45.34388,0.0],[25.741321,45.343815,0.0],[25.741293,45.343753,0.0],[25.739721,45.340228,0.0],[25.739686,45.340151,0.0],[25.739607,45.340093,0.0],[25.736812,45.338074,0.0],[25.736661,45.336371,0.0],[25.736661,45.336371,0.0],[25.736661,45.336371,0.0],[25.736512,45.334706,0.0],[25.736512,45.334703,0.0],[25.736511,45.3347,0.0],[25.736089,45.331031,0.0],[25.736511,45.328131,0.0],[25.736512,45.328127,0.0],[25.736512,45.328122,0.0],[25.736765,45.325773,0.0],[25.737003,45.323577,0.0],[25.737362,45.320386,0.0],[25.737362,45.320386,0.0],[25.737362,45.320386,0.0],[25.737638,45.317898,0.0],[25.73793,45.315421,0.0],[25.73793,45.315419,0.0],[25.73793,45.315417,0.0],[25.738116,45.31359,0.0],[25.738117,45.313574,0.0],[25.738117,45.313558,0.0],[25.738058,45.311875,0.0],[25.73794,45.308085,0.0],[25.73794,45.308084,0.0],[25.73794,45.308084,0.0],[25.737871,45.306191,0.0],[25.73774,45.302515,0.0],[25.73774,45.302515,0.0],[25.73774,45.302515,0.0],[25.73763,45.299682,0.0],[25.737564,45.297933,0.0],[25.73744,45.294553,0.0],[25.73744,45.294553,0.0],[25.73744,45.294553,0.0],[25.737384,45.293044,0.0],[25.737194,45.287845,0.0],[25.737194,45.287845,0.0],[25.737194,45.287845,0.0],[25.73708,45.284832,0.0],[25.736979,45.281959,0.0],[25.736922,45.280243,0.0],[25.736922,45.280243,0.0],[25.736922,45.280242,0.0],[25.736701,45.274371,0.0],[25.736701,45.274366,0.0],[25.7367,45.27436,0.0],[25.736518,45.272152,0.0],[25.737225,45.27064,0.0],[25.737228,45.270634,0.0],[25.73723,45.270628,0.0],[25.738293,45.268039,0.0],[25.738293,45.268038,0.0],[25.738293,45.268038,0.0],[25.739068,45.266137,0.0],[25.739068,45.266137,0.0],[25.739068,45.266137,0.0],[25.740469,45.262699,0.0],[25.741734,45.259628,0.0],[25.741737,45.25962,0.0],[25.741739,45.259613,0.0],[25.742394,45.257691,0.0],[25.744446,45.253293,0.0],[25.744471,45.25324,0.0],[25.74447,45.253184,0.0],[25.744425,45.249134,0.0],[25.744425,45.249134,0.0],[25.744425,45.249134,0.0],[25.744388,45.246176,0.0],[25.744367,45.244098,0.0],[25.744321,45.239152,0.0],[25.744321,45.239152,0.0],[25.744321,45.239151,0.0],[25.744277,45.235245,0.0],[25.744356,45.234062,0.0],[25.744359,45.234021,0.0],[25.744347,45.23398,0.0],[25.743516,45.23104,0.0],[25.743159,45.22963,0.0],[25.745627,45.225954,0.0],[25.747069,45.223806,0.0],[25.747069,45.223806,0.0],[25.747069,45.223806,0.0],[25.748429,45.221779,0.0],[25.750701,45.218567,0.0],[25.750734,45.218521,0.0],[25.750745,45.21847,0.0],[25.751182,45.216548,0.0],[25.75199,45.213367,0.0],[25.754331,45.211248,0.0],[25.754334,45.211245,0.0],[25.754337,45.211242,0.0],[25.755287,45.210339,0.0],[25.755287,45.210339,0.0],[25.755288,45.210339,0.0],[25.758312,45.207463,0.0],[25.760475,45.205407,0.0],[25.762729,45.203267,0.0],[25.762729,45.203267,0.0],[25.762729,45.203267,0.0],[25.765012,45.201098,0.0],[25.766909,45.199298,0.0],[25.769227,45.197099,0.0],[25.769227,45.197099,0.0],[25.769227,45.197099,0.0],[25.770875,45.195533,0.0],[25.770875,45.195533,0.0],[25.770875,45.195533,0.0],[25.772875,45.193631,0.0],[25.772884,45.193624,0.0],[25.772891,45.193615,0.0],[25.774301,45.192099,0.0],[25.774368,45.192027,0.0],[25.774378,45.191941,0.0],[25.774749,45.188687,0.0],[25.776206,45.185735,0.0],[25.777344,45.18392,0.0],[25.778199,45.182558,0.0],[25.780824,45.179945,0.0],[25.780914,45.179855,0.0],[25.780912,45.179745,0.0],[25.780864,45.177125,0.0],[25.780864,45.177108,0.0],[25.780861,45.177092,0.0],[25.780443,45.174427,0.0],[25.781716,45.171791,0.0],[25.781755,45.171709,0.0],[25.781735,45.171625,0.0],[25.781058,45.168826,0.0],[25.780728,45.16745,0.0],[25.780728,45.16745,0.0],[25.780728,45.167449,0.0],[25.780084,45.164796,0.0],[25.779413,45.162016,0.0],[25.779411,45.162009,0.0],[25.779409,45.162003,0.0],[25.778073,45.157562,0.0],[25.778295,45.155573,0.0],[25.778735,45.151688,0.0],[25.778758,45.151485,0.0],[25.778516,45.151376,0.0],[25.774218,45.149431,0.0],[25.774218,45.149431,0.0],[25.774218,45.149431,0.0],[25.772987,45.148875,0.0],[25.770129,45.147582,0.0],[25.766446,45.145916,0.0],[25.764439,45.142609,0.0],[25.764434,45.142601,0.0],[25.764429,45.142593,0.0],[25.763654,45.141477,0.0],[25.763393,45.139625,0.0],[25.763376,45.139502,0.0],[25.763249,45.139415,0.0],[25.761719,45.138373,0.0],[25.76153,45.135835,0.0],[25.761323,45.133037,0.0],[25.761323,45.133033,0.0],[25.761322,45.133029,0.0],[25.761046,45.130374,0.0],[25.762505,45.126825,0.0],[25.762508,45.126819,0.0],[25.76251,45.126813,0.0],[25.763712,45.123457,0.0],[25.764954,45.121823,0.0],[25.764958,45.121818,0.0],[25.764962,45.121812,0.0],[25.766719,45.119284,0.0],[25.766719,45.119284,0.0],[25.766719,45.119284,0.0],[25.76851,45.116706,0.0],[25.76851,45.116706,0.0],[25.76851,45.116706,0.0],[25.770484,45.113859,0.0],[25.772046,45.111612,0.0],[25.772046,45.111611,0.0],[25.772046,45.111611,0.0],[25.7735,45.109508,0.0],[25.77541,45.106756,0.0],[25.77541,45.106756,0.0],[25.77541,45.106756,0.0],[25.777484,45.10376,0.0],[25.779232,45.101243,0.0],[25.779292,45.101156,0.0],[25.779279,45.10106,0.0],[25.778901,45.098402,0.0],[25.778901,45.098401,0.0],[25.778901,45.098401,0.0],[25.778526,45.095793,0.0],[25.778526,45.095793,0.0],[25.778526,45.095793,0.0],[25.778025,45.092333,0.0],[25.777583,45.089242,0.0],[25.779404,45.087154,0.0],[25.779404,45.087154,0.0],[25.779404,45.087154,0.0],[25.781278,45.085004,0.0],[25.783156,45.082852,0.0],[25.783156,45.082852,0.0],[25.783156,45.082852,0.0],[25.785391,45.080286,0.0],[25.787625,45.077722,0.0],[25.789174,45.075947,0.0],[25.791209,45.073613,0.0],[25.791209,45.073613,0.0],[25.791209,45.073613,0.0],[25.793606,45.070861,0.0],[25.795904,45.068224,0.0],[25.798217,45.065572,0.0],[25.80038,45.063094,0.0],[25.800381,45.063094,0.0],[25.800381,45.063094,0.0],[25.802284,45.060909,0.0],[25.804302,45.058593,0.0],[25.804302,45.058593,0.0],[25.804302,45.058593,0.0],[25.806641,45.055908,0.0],[25.80898,45.053223,0.0],[25.80898,45.053223,0.0],[25.808981,45.053223,0.0],[25.81125,45.050615,0.0],[25.813494,45.048037,0.0],[25.813494,45.048037,0.0],[25.813494,45.048037,0.0],[25.815933,45.045235,0.0],[25.815933,45.045235,0.0],[25.815933,45.045235,0.0],[25.818136,45.042702,0.0],[25.820337,45.040174,0.0],[25.820337,45.040174,0.0],[25.820337,45.040174,0.0],[25.822599,45.037573,0.0],[25.822599,45.037573,0.0],[25.822599,45.037573,0.0],[25.824766,45.035082,0.0],[25.827303,45.032166,0.0],[25.827387,45.03207,0.0],[25.827372,45.031958,0.0],[25.826961,45.02872,0.0],[25.826677,45.02647,0.0],[25.826677,45.02647,0.0],[25.826677,45.02647,0.0],[25.826242,45.02304,0.0],[25.8259,45.020342,0.0],[25.826917,45.01825,0.0],[25.826917,45.01825,0.0],[25.826918,45.01825,0.0],[25.828396,45.015199,0.0],[25.828396,45.015199,0.0],[25.828396,45.015199,0.0],[25.829722,45.012461,0.0],[25.83112,45.009579,0.0],[25.83112,45.009579,0.0],[25.83112,45.009579,0.0],[25.832635,45.006453,0.0],[25.834091,45.003452,0.0],[25.834091,45.003452,0.0],[25.834091,45.003452,0.0],[25.835537,45.000465,0.0],[25.836995,44.997454,0.0],[25.83844,44.99447,0.0],[25.83844,44.99447,0.0],[25.83844,44.99447,0.0],[25.839885,44.991485,0.0],[25.839885,44.991485,0.0],[25.839885,44.991485,0.0],[25.84133,44.988498,0.0],[25.84133,44.988498,0.0],[25.84133,44.988498,0.0],[25.842772,44.985514,0.0],[25.84422,44.982521,0.0],[25.84422,44.982521,0.0],[25.84422,44.982521,0.0],[25.845603,44.979659,0.0],[25.847048,44.97667,0.0],[25.848493,44.973692,0.0],[25.848493,44.973692,0.0],[25.848494,44.973691,0.0],[25.850081,44.970404,0.0],[25.851557,44.967352,0.0],[25.853009,44.964347,0.0],[25.854476,44.961311,0.0],[25.855932,44.958298,0.0],[25.857384,44.955294,0.0],[25.857421,44.955218,0.0],[25.857406,44.955139,0.0],[25.856809,44.95203,0.0],[25.856221,44.94896,0.0],[25.856221,44.94896,0.0],[25.856221,44.94896,0.0],[25.855615,44.945807,0.0],[25.85501,44.942656,0.0],[25.854432,44.939634,0.0],[25.854432,44.939634,0.0],[25.854432,44.939634,0.0],[25.853831,44.936495,0.0],[25.853831,44.936495,0.0],[25.853831,44.936495,0.0],[25.85323,44.933365,0.0],[25.852629,44.930228,0.0],[25.852629,44.930228,0.0],[25.852629,44.930228,0.0],[25.852037,44.927147,0.0],[25.851651,44.925138,0.0],[25.851,44.921749,0.0],[25.850387,44.918548,0.0],[25.852872,44.916655,0.0],[25.855913,44.914341,0.0],[25.855913,44.914341,0.0],[25.855913,44.914341,0.0],[25.859043,44.911956,0.0],[25.861293,44.910243,0.0],[25.864335,44.907928,0.0],[25.864335,44.907928,0.0],[25.864335,44.907928,0.0],[25.867373,44.905614,0.0],[25.870419,44.903295,0.0],[25.873454,44.900986,0.0],[25.873454,44.900986,0.0],[25.873454,44.900986,0.0],[25.876474,44.898687,0.0],[25.876474,44.898687,0.0],[25.876474,44.898687,0.0],[25.879521,44.896368,0.0],[25.88252,44.894086,0.0],[25.88252,44.894086,0.0],[25.88252,44.894086,0.0],[25.885578,44.891758,0.0],[25.88852,44.889522,0.0],[25.88852,44.889522,0.0],[25.88852,44.889522,0.0],[25.891539,44.887223,0.0],[25.891539,44.887223,0.0],[25.891539,44.887223,0.0],[25.894444,44.885011,0.0],[25.897449,44.882723,0.0],[25.900459,44.88043,0.0],[25.900459,44.88043,0.0],[25.900459,44.88043,0.0],[25.903309,44.878259,0.0],[25.906523,44.87581,0.0],[25.90956,44.873498,0.0],[25.90956,44.873498,0.0],[25.90956,44.873498,0.0],[25.912595,44.871185,0.0],[25.915632,44.868871,0.0],[25.918176,44.866935,0.0],[25.918176,44.866935,0.0],[25.918176,44.866935,0.0],[25.921338,44.864527,0.0],[25.924379,44.862211,0.0],[25.924379,44.862211,0.0],[25.92438,44.862211,0.0],[25.927307,44.85998,0.0],[25.927365,44.859936,0.0],[25.927398,44.85988,0.0],[25.927822,44.859159,0.0],[25.931008,44.859704,0.0]]]],"type":"MultiPolygon"},"properties":{"Denumire":null,"_s":{"f":"#00feff","fo":0.3,"s":"#00feff","so":1.0,"w":1.89,"r":5.0}}},{"type":"Feature","geometry":{"coordinates":[[[[25.987484,44.891271,0.0],[25.987484,44.891271,0.0],[25.987484,44.891271,0.0],[25.985301,44.894402,0.0],[25.981316,44.895583,0.0],[25.981316,44.895583,0.0],[25.981316,44.895583,0.0],[25.978277,44.896484,0.0],[25.97446,44.897615,0.0],[25.972078,44.897516,0.0],[25.972023,44.89819,0.0],[25.974514,44.898293,0.0],[25.974624,44.898297,0.0],[25.974725,44.898268,0.0],[25.978642,44.897107,0.0],[25.978642,44.897107,0.0],[25.978642,44.897107,0.0],[25.981681,44.896206,0.0],[25.98583,44.894976,0.0],[25.985994,44.894928,0.0],[25.986073,44.894815,0.0],[25.988335,44.891571,0.0],[25.989704,44.889607,0.0],[25.989704,44.889607,0.0],[25.989704,44.889607,0.0],[25.991852,44.886527,0.0],[25.99385,44.883661,0.0],[25.997314,44.881293,0.0],[25.996656,44.880806,0.0],[25.993133,44.883215,0.0],[25.993073,44.883255,0.0],[25.993036,44.883308,0.0],[25.991001,44.886227,0.0],[25.991001,44.886227,0.0],[25.991001,44.886227,0.0],[25.988853,44.889307,0.0],[25.987484,44.891271,0.0]]]],"type":"MultiPolygon"},"properties":{"Denumire":null,"_s":{"f":"#00feff","fo":0.3,"s":"#00feff","so":1.0,"w":1.89,"r":5.0}}},{"type":"Feature","geometry":{"coordinates":[[[[26.536721,45.018811,0.0],[26.537183,45.018221,0.0],[26.537183,45.018221,0.0],[26.537183,45.018221,0.0],[26.532946,45.016552,0.0],[26.5288,45.014917,0.0],[26.5288,45.014917,0.0],[26.5288,45.014917,0.0],[26.524752,45.013323,0.0],[26.524751,45.013323,0.0],[26.524751,45.013323,0.0],[26.520799,45.011771,0.0],[26.517201,45.009887,0.0],[26.5172,45.009886,0.0],[26.5172,45.009886,0.0],[26.513328,45.007869,0.0],[26.509353,45.005796,0.0],[26.509353,45.005796,0.0],[26.509353,45.005796,0.0],[26.505533,45.003805,0.0],[26.505533,45.003805,0.0],[26.505533,45.003805,0.0],[26.501632,45.001772,0.0],[26.497787,44.999766,0.0],[26.497787,44.999766,0.0],[26.497787,44.999766,0.0],[26.493831,44.997705,0.0],[26.489972,44.995693,0.0],[26.489972,44.995693,0.0],[26.489972,44.995693,0.0],[26.486177,44.993715,0.0],[26.482308,44.991691,0.0],[26.482233,44.991652,0.0],[26.482143,44.991635,0.0],[26.477739,44.990841,0.0],[26.473189,44.990016,0.0],[26.473189,44.990016,0.0],[26.473189,44.990016,0.0],[26.468838,44.989227,0.0],[26.464401,44.988421,0.0],[26.464401,44.988421,0.0],[26.4644,44.988421,0.0],[26.460117,44.987651,0.0],[26.455936,44.986411,0.0],[26.455936,44.98641,0.0],[26.455935,44.98641,0.0],[26.451467,44.985095,0.0],[26.446774,44.983711,0.0],[26.446773,44.983711,0.0],[26.446773,44.983711,0.0],[26.441727,44.982224,0.0],[26.438106,44.981155,0.0],[26.438105,44.981155,0.0],[26.438105,44.981155,0.0],[26.433098,44.979679,0.0],[26.433098,44.979679,0.0],[26.433098,44.979678,0.0],[26.43016,44.978813,0.0],[26.425479,44.977432,0.0],[26.421562,44.976276,0.0],[26.421562,44.976276,0.0],[26.421562,44.976276,0.0],[26.417203,44.97499,0.0],[26.412801,44.973691,0.0],[26.412801,44.973691,0.0],[26.412801,44.973691,0.0],[26.40834,44.972374,0.0],[26.40834,44.972374,0.0],[26.40834,44.972374,0.0],[26.403895,44.971063,0.0],[26.399428,44.969744,0.0],[26.399428,44.969744,0.0],[26.399428,44.969744,0.0],[26.395168,44.968486,0.0],[26.395168,44.968486,0.0],[26.395168,44.968486,0.0],[26.390777,44.96719,0.0],[26.386048,44.965793,0.0],[26.386048,44.965793,0.0],[26.386048,44.965793,0.0],[26.380911,44.964276,0.0],[26.375984,44.962819,0.0],[26.375983,44.962819,0.0],[26.375983,44.962819,0.0],[26.371679,44.961551,0.0],[26.367827,44.959921,0.0],[26.367798,44.959909,0.0],[26.367766,44.959899,0.0],[26.363361,44.958604,0.0],[26.359071,44.957334,0.0],[26.354738,44.956049,0.0],[26.350456,44.954763,0.0],[26.350418,44.954752,0.0],[26.350377,44.954745,0.0],[26.346673,44.954137,0.0],[26.343014,44.953042,0.0],[26.343013,44.953042,0.0],[26.343012,44.953041,0.0],[26.338632,44.951751,0.0],[26.338632,44.951751,0.0],[26.338632,44.951751,0.0],[26.334454,44.950519,0.0],[26.330254,44.949281,0.0],[26.330254,44.949281,0.0],[26.330254,44.949281,0.0],[26.326036,44.948037,0.0],[26.326036,44.948037,0.0],[26.326036,44.948037,0.0],[26.321804,44.946792,0.0],[26.317401,44.945492,0.0],[26.317401,44.945492,0.0],[26.317401,44.945492,0.0],[26.313275,44.944275,0.0],[26.313275,44.944275,0.0],[26.313275,44.944275,0.0],[26.309043,44.943027,0.0],[26.30428,44.941619,0.0],[26.299768,44.940273,0.0],[26.299735,44.940263,0.0],[26.299701,44.940257,0.0],[26.295168,44.939443,0.0],[26.293194,44.938728,0.0],[26.293084,44.938689,0.0],[26.292962,44.938692,0.0],[26.288888,44.93879,0.0],[26.284281,44.938143,0.0],[26.284281,44.938143,0.0],[26.284281,44.938143,0.0],[26.279529,44.937476,0.0],[26.279473,44.937469,0.0],[26.279415,44.93747,0.0],[26.274701,44.937624,0.0],[26.269788,44.937769,0.0],[26.264889,44.937913,0.0],[26.260175,44.938051,0.0],[26.260175,44.938051,0.0],[26.260175,44.938051,0.0],[26.255458,44.938189,0.0],[26.255458,44.938189,0.0],[26.255458,44.938189,0.0],[26.251431,44.938309,0.0],[26.247111,44.938435,0.0],[26.243444,44.938541,0.0],[26.241546,44.937182,0.0],[26.241546,44.937182,0.0],[26.241546,44.937182,0.0],[26.238424,44.93495,0.0],[26.238424,44.93495,0.0],[26.238424,44.934949,0.0],[26.235216,44.932655,0.0],[26.230876,44.929544,0.0],[26.230876,44.929544,0.0],[26.230875,44.929544,0.0],[26.227227,44.926939,0.0],[26.223654,44.924381,0.0],[26.220228,44.921926,0.0],[26.216891,44.919533,0.0],[26.216891,44.919533,0.0],[26.216891,44.919533,0.0],[26.213415,44.917041,0.0],[26.209855,44.914487,0.0],[26.207445,44.912746,0.0],[26.207386,44.912704,0.0],[26.20731,44.912678,0.0],[26.203009,44.911227,0.0],[26.198622,44.909736,0.0],[26.194259,44.908252,0.0],[26.194259,44.908251,0.0],[26.194259,44.908251,0.0],[26.189686,44.906696,0.0],[26.189686,44.906696,0.0],[26.189686,44.906696,0.0],[26.188001,44.906124,0.0],[26.187855,44.906075,0.0],[26.187696,44.906099,0.0],[26.186688,44.906255,0.0],[26.186426,44.906295,0.0],[26.18634,44.906476,0.0],[26.185049,44.909176,0.0],[26.182133,44.910854,0.0],[26.17918,44.912544,0.0],[26.176219,44.914235,0.0],[26.176202,44.914244,0.0],[26.176188,44.914254,0.0],[26.172973,44.916442,0.0],[26.16987,44.918553,0.0],[26.166653,44.920735,0.0],[26.166652,44.920735,0.0],[26.166652,44.920735,0.0],[26.164734,44.922041,0.0],[26.161309,44.92435,0.0],[26.156923,44.925166,0.0],[26.153271,44.925835,0.0],[26.153178,44.925852,0.0],[26.153102,44.925893,0.0],[26.150059,44.927543,0.0],[26.147019,44.929187,0.0],[26.146852,44.929277,0.0],[26.146833,44.929425,0.0],[26.146395,44.932846,0.0],[26.145937,44.936332,0.0],[26.143382,44.939019,0.0],[26.140918,44.941584,0.0],[26.13811,44.941819,0.0],[26.133534,44.9422,0.0],[26.129143,44.942555,0.0],[26.125277,44.941153,0.0],[26.124845,44.941754,0.0],[26.128839,44.943203,0.0],[26.128966,44.943249,0.0],[26.129108,44.943237,0.0],[26.133642,44.94287,0.0],[26.133643,44.94287,0.0],[26.133644,44.94287,0.0],[26.138221,44.94249,0.0],[26.138221,44.94249,0.0],[26.138221,44.94249,0.0],[26.141244,44.942236,0.0],[26.141459,44.942218,0.0],[26.141581,44.942091,0.0],[26.144168,44.939399,0.0],[26.144168,44.939398,0.0],[26.144169,44.939398,0.0],[26.146792,44.936638,0.0],[26.14686,44.936567,0.0],[26.146871,44.936481,0.0],[26.147341,44.932908,0.0],[26.147341,44.932907,0.0],[26.147341,44.932907,0.0],[26.147761,44.929634,0.0],[26.150634,44.92808,0.0],[26.150635,44.928079,0.0],[26.150635,44.928079,0.0],[26.153601,44.926471,0.0],[26.157161,44.925819,0.0],[26.157162,44.925819,0.0],[26.157163,44.925819,0.0],[26.161668,44.924981,0.0],[26.161786,44.924959,0.0],[26.161875,44.9249,0.0],[26.165389,44.92253,0.0],[26.165389,44.922529,0.0],[26.16539,44.922529,0.0],[26.167309,44.921223,0.0],[26.170526,44.919041,0.0],[26.170526,44.919041,0.0],[26.170527,44.919041,0.0],[26.17363,44.916929,0.0],[26.173631,44.916929,0.0],[26.173631,44.916929,0.0],[26.17683,44.914752,0.0],[26.179775,44.91307,0.0],[26.179775,44.91307,0.0],[26.179775,44.91307,0.0],[26.18273,44.911379,0.0],[26.18273,44.911379,0.0],[26.182731,44.911379,0.0],[26.185753,44.909639,0.0],[26.18586,44.909578,0.0],[26.185904,44.909486,0.0],[26.187153,44.906874,0.0],[26.187739,44.906783,0.0],[26.189276,44.907305,0.0],[26.193849,44.90886,0.0],[26.198212,44.910344,0.0],[26.198212,44.910344,0.0],[26.198212,44.910344,0.0],[26.2026,44.911836,0.0],[26.2026,44.911836,0.0],[26.202601,44.911836,0.0],[26.206826,44.913262,0.0],[26.209179,44.914961,0.0],[26.209179,44.914961,0.0],[26.20918,44.914962,0.0],[26.21274,44.917516,0.0],[26.21274,44.917516,0.0],[26.21274,44.917516,0.0],[26.216216,44.920008,0.0],[26.219553,44.922401,0.0],[26.219553,44.922401,0.0],[26.219553,44.922401,0.0],[26.222979,44.924856,0.0],[26.222979,44.924856,0.0],[26.22298,44.924857,0.0],[26.226553,44.927415,0.0],[26.226553,44.927415,0.0],[26.226554,44.927415,0.0],[26.230202,44.930019,0.0],[26.234541,44.93313,0.0],[26.234542,44.933131,0.0],[26.234542,44.933131,0.0],[26.23775,44.935425,0.0],[26.240871,44.937658,0.0],[26.242916,44.939121,0.0],[26.243064,44.939227,0.0],[26.243273,44.939221,0.0],[26.24715,44.939109,0.0],[26.24715,44.939109,0.0],[26.24715,44.939109,0.0],[26.25147,44.938983,0.0],[26.25147,44.938983,0.0],[26.25147,44.938983,0.0],[26.255497,44.938863,0.0],[26.260214,44.938725,0.0],[26.264928,44.938587,0.0],[26.264928,44.938587,0.0],[26.264928,44.938587,0.0],[26.269827,44.938443,0.0],[26.269827,44.938443,0.0],[26.269827,44.938443,0.0],[26.274742,44.938298,0.0],[26.274743,44.938298,0.0],[26.274744,44.938298,0.0],[26.279401,44.938147,0.0],[26.284097,44.938805,0.0],[26.288757,44.93946,0.0],[26.288811,44.939468,0.0],[26.288865,44.939466,0.0],[26.292871,44.939369,0.0],[26.294784,44.940062,0.0],[26.294832,44.940079,0.0],[26.294884,44.940089,0.0],[26.299433,44.940905,0.0],[26.303913,44.942242,0.0],[26.303914,44.942242,0.0],[26.303915,44.942242,0.0],[26.308678,44.94365,0.0],[26.308679,44.94365,0.0],[26.308679,44.94365,0.0],[26.31291,44.944898,0.0],[26.317036,44.946115,0.0],[26.321439,44.947415,0.0],[26.321439,44.947415,0.0],[26.32144,44.947415,0.0],[26.325672,44.948661,0.0],[26.329889,44.949904,0.0],[26.33409,44.951143,0.0],[26.33409,44.951143,0.0],[26.33409,44.951143,0.0],[26.338268,44.952374,0.0],[26.342646,44.953664,0.0],[26.346342,44.95477,0.0],[26.346379,44.954782,0.0],[26.346419,44.954788,0.0],[26.350123,44.955396,0.0],[26.354369,44.956671,0.0],[26.35437,44.956671,0.0],[26.354371,44.956672,0.0],[26.358704,44.957957,0.0],[26.358705,44.957957,0.0],[26.358705,44.957957,0.0],[26.362996,44.959227,0.0],[26.362997,44.959227,0.0],[26.362997,44.959227,0.0],[26.36737,44.960514,0.0],[26.371222,44.962143,0.0],[26.371251,44.962156,0.0],[26.371283,44.962165,0.0],[26.375618,44.963442,0.0],[26.380546,44.964899,0.0],[26.380546,44.964899,0.0],[26.380546,44.964899,0.0],[26.385683,44.966417,0.0],[26.390412,44.967813,0.0],[26.390412,44.967813,0.0],[26.390412,44.967813,0.0],[26.394803,44.969109,0.0],[26.399063,44.970367,0.0],[26.40353,44.971686,0.0],[26.40353,44.971686,0.0],[26.40353,44.971686,0.0],[26.407975,44.972998,0.0],[26.412436,44.974314,0.0],[26.416838,44.975614,0.0],[26.416838,44.975614,0.0],[26.416838,44.975614,0.0],[26.421197,44.976899,0.0],[26.425114,44.978055,0.0],[26.425114,44.978055,0.0],[26.425114,44.978055,0.0],[26.429795,44.979436,0.0],[26.429796,44.979436,0.0],[26.429796,44.979436,0.0],[26.432734,44.980302,0.0],[26.43774,44.981778,0.0],[26.441362,44.982848,0.0],[26.441362,44.982848,0.0],[26.441362,44.982848,0.0],[26.446409,44.984335,0.0],[26.451102,44.985718,0.0],[26.451102,44.985718,0.0],[26.451102,44.985718,0.0],[26.45557,44.987034,0.0],[26.459783,44.988283,0.0],[26.459816,44.988293,0.0],[26.45985,44.988299,0.0],[26.464166,44.989075,0.0],[26.468602,44.989881,0.0],[26.468602,44.989881,0.0],[26.468602,44.989881,0.0],[26.472954,44.99067,0.0],[26.477504,44.991495,0.0],[26.477504,44.991495,0.0],[26.477505,44.991495,0.0],[26.481819,44.992273,0.0],[26.485613,44.994258,0.0],[26.485614,44.994258,0.0],[26.485614,44.994258,0.0],[26.489409,44.996237,0.0],[26.493268,44.998249,0.0],[26.493268,44.998249,0.0],[26.493268,44.998249,0.0],[26.497224,45.00031,0.0],[26.501068,45.002316,0.0],[26.501069,45.002316,0.0],[26.501069,45.002316,0.0],[26.50497,45.004349,0.0],[26.50879,45.00634,0.0],[26.512765,45.008413,0.0],[26.512765,45.008413,0.0],[26.512765,45.008413,0.0],[26.516636,45.01043,0.0],[26.520259,45.012327,0.0],[26.520284,45.01234,0.0],[26.520311,45.012351,0.0],[26.52429,45.013913,0.0],[26.528337,45.015507,0.0],[26.532484,45.017142,0.0],[26.532484,45.017142,0.0],[26.532484,45.017142,0.0],[26.536721,45.018811,0.0]]]],"type":"MultiPolygon"},"properties":{"Denumire":null,"_s":{"f":"#00feff","fo":0.3,"s":"#00feff","so":1.0,"w":1.89,"r":5.0}}},{"type":"Feature","geometry":{"coordinates":[[[[25.865023,44.814684,0.0],[25.864077,44.814637,0.0],[25.863735,44.818068,0.0],[25.863735,44.818068,0.0],[25.863735,44.818068,0.0],[25.863411,44.82135,0.0],[25.863125,44.82422,0.0],[25.863125,44.824221,0.0],[25.863125,44.824221,0.0],[25.86284,44.827093,0.0],[25.86251,44.830395,0.0],[25.86251,44.830395,0.0],[25.86251,44.830395,0.0],[25.862129,44.834246,0.0],[25.86182,44.837331,0.0],[25.861812,44.837413,0.0],[25.861857,44.837488,0.0],[25.86349,44.840192,0.0],[25.86349,44.840192,0.0],[25.86349,44.840192,0.0],[25.865536,44.843581,0.0],[25.867133,44.846226,0.0],[25.868449,44.84841,0.0],[25.868449,44.848411,0.0],[25.868449,44.848411,0.0],[25.870193,44.851294,0.0],[25.870279,44.851437,0.0],[25.870488,44.851483,0.0],[25.874641,44.852398,0.0],[25.878973,44.853353,0.0],[25.883573,44.854367,0.0],[25.883573,44.854367,0.0],[25.883573,44.854367,0.0],[25.888092,44.855363,0.0],[25.893533,44.856563,0.0],[25.893533,44.856563,0.0],[25.893533,44.856563,0.0],[25.897412,44.857417,0.0],[25.900908,44.858188,0.0],[25.900908,44.858188,0.0],[25.900908,44.858188,0.0],[25.904424,44.858962,0.0],[25.904424,44.858962,0.0],[25.904424,44.858962,0.0],[25.907468,44.859633,0.0],[25.911093,44.860432,0.0],[25.911219,44.86046,0.0],[25.911348,44.860437,0.0],[25.914787,44.859832,0.0],[25.918225,44.859229,0.0],[25.918225,44.859229,0.0],[25.918225,44.859229,0.0],[25.921658,44.858623,0.0],[25.925623,44.858348,0.0],[25.927298,44.859053,0.0],[25.92736,44.859079,0.0],[25.927429,44.859091,0.0],[25.931008,44.859704,0.0],[25.933296,44.862284,0.0],[25.935839,44.865156,0.0],[25.93849,44.868151,0.0],[25.940951,44.87093,0.0],[25.940951,44.87093,0.0],[25.940951,44.87093,0.0],[25.943549,44.873862,0.0],[25.946022,44.876661,0.0],[25.946022,44.876661,0.0],[25.946022,44.876661,0.0],[25.948555,44.879525,0.0],[25.94857,44.879542,0.0],[25.948587,44.879557,0.0],[25.951542,44.882166,0.0],[25.951542,44.882166,0.0],[25.951542,44.882166,0.0],[25.954472,44.884751,0.0],[25.954472,44.884751,0.0],[25.954472,44.884751,0.0],[25.957356,44.887295,0.0],[25.9605,44.890069,0.0],[25.9605,44.890069,0.0],[25.9605,44.890069,0.0],[25.963513,44.892726,0.0],[25.963513,44.892726,0.0],[25.963513,44.892726,0.0],[25.966532,44.895386,0.0],[25.966564,44.895414,0.0],[25.966602,44.895436,0.0],[25.970149,44.897486,0.0],[25.970748,44.896963,0.0],[25.96724,44.894935,0.0],[25.964252,44.892302,0.0],[25.96124,44.889646,0.0],[25.958095,44.886871,0.0],[25.958095,44.886871,0.0],[25.958095,44.886871,0.0],[25.955211,44.884328,0.0],[25.952282,44.881742,0.0],[25.949344,44.879149,0.0],[25.946825,44.876302,0.0],[25.944352,44.873503,0.0],[25.944352,44.873503,0.0],[25.944352,44.873502,0.0],[25.941754,44.870571,0.0],[25.939294,44.867791,0.0],[25.939294,44.867791,0.0],[25.939294,44.867791,0.0],[25.936642,44.864796,0.0],[25.936642,44.864796,0.0],[25.936642,44.864796,0.0],[25.934099,44.861925,0.0],[25.934099,44.861925,0.0],[25.934099,44.861924,0.0],[25.931707,44.859228,0.0],[25.931604,44.859112,0.0],[25.931417,44.85908,0.0],[25.927721,44.858447,0.0],[25.925974,44.857711,0.0],[25.92584,44.857655,0.0],[25.925686,44.857665,0.0],[25.921532,44.857954,0.0],[25.921497,44.857956,0.0],[25.921464,44.857962,0.0],[25.917997,44.858574,0.0],[25.91456,44.859177,0.0],[25.91456,44.859177,0.0],[25.91456,44.859177,0.0],[25.911248,44.859759,0.0],[25.907749,44.858988,0.0],[25.907749,44.858988,0.0],[25.907748,44.858988,0.0],[25.904704,44.858318,0.0],[25.901189,44.857544,0.0],[25.897693,44.856772,0.0],[25.897693,44.856772,0.0],[25.897693,44.856772,0.0],[25.893814,44.855918,0.0],[25.888373,44.854718,0.0],[25.888373,44.854718,0.0],[25.888373,44.854718,0.0],[25.883854,44.853723,0.0],[25.879254,44.852708,0.0],[25.879254,44.852708,0.0],[25.879254,44.852708,0.0],[25.874922,44.851753,0.0],[25.874922,44.851753,0.0],[25.874922,44.851753,0.0],[25.870978,44.850884,0.0],[25.869321,44.848144,0.0],[25.868005,44.84596,0.0],[25.868005,44.84596,0.0],[25.868005,44.84596,0.0],[25.866408,44.843315,0.0],[25.866408,44.843315,0.0],[25.866408,44.843315,0.0],[25.864361,44.839925,0.0],[25.862775,44.837297,0.0],[25.863075,44.834294,0.0],[25.863075,44.834294,0.0],[25.863075,44.834294,0.0],[25.863457,44.830442,0.0],[25.863786,44.82714,0.0],[25.863786,44.82714,0.0],[25.863786,44.82714,0.0],[25.864071,44.824268,0.0],[25.864357,44.821397,0.0],[25.864357,44.821397,0.0],[25.864357,44.821397,0.0],[25.864681,44.818115,0.0],[25.865023,44.814684,0.0]]]],"type":"MultiPolygon"},"properties":{"Denumire":null,"_s":{"f":"#00feff","fo":0.3,"s":"#00feff","so":1.0,"w":1.89,"r":5.0}}}]}